<?xml version="1.0" encoding="UTF-8"?>
<gpx xmlns:xsi="http://www.w3.org/2001/XMLSchema-instance" xsi:schemaLocation="http://www.topografix.com/GPX/1/1 http://www.topografix.com/GPX/1/1/gpx.xsd" creator="StravaGPX" version="1.1" xmlns="http://www.topografix.com/GPX/1/1">
 <trk>
  <name>Afternoon Run</name>
  <type>running</type>
  <trkseg>
   <trkpt lat="21.0665490" lon="105.7870500">
    <ele>6.4</ele>
   </trkpt>
   <trkpt lat="21.0666290" lon="105.7870640">
    <ele>6.4</ele>
   </trkpt>
   <trkpt lat="21.0667410" lon="105.7870280">
    <ele>6.2</ele>
   </trkpt>
   <trkpt lat="21.0667940" lon="105.7870050">
    <ele>6.2</ele>
   </trkpt>
   <trkpt lat="21.0668420" lon="105.7869800">
    <ele>6.2</ele>
   </trkpt>
   <trkpt lat="21.0669300" lon="105.7869210">
    <ele>6.2</ele>
   </trkpt>
   <trkpt lat="21.0669550" lon="105.7869060">
    <ele>6.2</ele>
   </trkpt>
   <trkpt lat="21.0670410" lon="105.7868310">
    <ele>6.2</ele>
   </trkpt>
   <trkpt lat="21.0670920" lon="105.7867740">
    <ele>6.2</ele>
   </trkpt>
   <trkpt lat="21.0671120" lon="105.7867490">
    <ele>6.2</ele>
   </trkpt>
   <trkpt lat="21.0671700" lon="105.7866910">
    <ele>6.2</ele>
   </trkpt>
   <trkpt lat="21.0672220" lon="105.7866310">
    <ele>6.2</ele>
   </trkpt>
   <trkpt lat="21.0672840" lon="105.7865300">
    <ele>6.2</ele>
   </trkpt>
   <trkpt lat="21.0672980" lon="105.7864700">
    <ele>6.2</ele>
   </trkpt>
   <trkpt lat="21.0673010" lon="105.7864360">
    <ele>6.2</ele>
   </trkpt>
   <trkpt lat="21.0672920" lon="105.7864130">
    <ele>6.2</ele>
   </trkpt>
   <trkpt lat="21.0672760" lon="105.7863560">
    <ele>6.2</ele>
   </trkpt>
   <trkpt lat="21.0672240" lon="105.7862610">
    <ele>6.2</ele>
   </trkpt>
   <trkpt lat="21.0671620" lon="105.7861320">
    <ele>6.4</ele>
   </trkpt>
   <trkpt lat="21.0671160" lon="105.7860250">
    <ele>6.6</ele>
   </trkpt>
   <trkpt lat="21.0670820" lon="105.7859450">
    <ele>6.4</ele>
   </trkpt>
   <trkpt lat="21.0670460" lon="105.7858810">
    <ele>6.4</ele>
   </trkpt>
   <trkpt lat="21.0669910" lon="105.7857760">
    <ele>6.4</ele>
   </trkpt>
   <trkpt lat="21.0668960" lon="105.7857220">
    <ele>6.2</ele>
   </trkpt>
   <trkpt lat="21.0667440" lon="105.7856770">
    <ele>6.2</ele>
   </trkpt>
   <trkpt lat="21.0666430" lon="105.7856720">
    <ele>6.2</ele>
   </trkpt>
   <trkpt lat="21.0665360" lon="105.7856550">
    <ele>6.2</ele>
   </trkpt>
   <trkpt lat="21.0664670" lon="105.7856620">
    <ele>6.2</ele>
   </trkpt>
   <trkpt lat="21.0663640" lon="105.7856950">
    <ele>6.0</ele>
   </trkpt>
   <trkpt lat="21.0662680" lon="105.7857180">
    <ele>6.2</ele>
   </trkpt>
   <trkpt lat="21.0661620" lon="105.7857820">
    <ele>6.4</ele>
   </trkpt>
   <trkpt lat="21.0660910" lon="105.7858470">
    <ele>6.4</ele>
   </trkpt>
   <trkpt lat="21.0660170" lon="105.7859240">
    <ele>6.4</ele>
   </trkpt>
   <trkpt lat="21.0659390" lon="105.7859920">
    <ele>6.4</ele>
   </trkpt>
   <trkpt lat="21.0658360" lon="105.7860620">
    <ele>6.4</ele>
   </trkpt>
   <trkpt lat="21.0657590" lon="105.7860700">
    <ele>6.4</ele>
   </trkpt>
   <trkpt lat="21.0657370" lon="105.7860740">
    <ele>6.4</ele>
   </trkpt>
   <trkpt lat="21.0657080" lon="105.7860650">
    <ele>6.4</ele>
   </trkpt>
   <trkpt lat="21.0656850" lon="105.7860670">
    <ele>6.2</ele>
   </trkpt>
   <trkpt lat="21.0656350" lon="105.7860550">
    <ele>6.4</ele>
   </trkpt>
   <trkpt lat="21.0655630" lon="105.7860110">
    <ele>6.4</ele>
   </trkpt>
   <trkpt lat="21.0654730" lon="105.7859260">
    <ele>6.4</ele>
   </trkpt>
   <trkpt lat="21.0653920" lon="105.7857950">
    <ele>6.6</ele>
   </trkpt>
   <trkpt lat="21.0653170" lon="105.7856800">
    <ele>6.6</ele>
   </trkpt>
   <trkpt lat="21.0652560" lon="105.7855920">
    <ele>6.6</ele>
   </trkpt>
   <trkpt lat="21.0651780" lon="105.7855260">
    <ele>6.4</ele>
   </trkpt>
   <trkpt lat="21.0650730" lon="105.7854490">
    <ele>6.6</ele>
   </trkpt>
   <trkpt lat="21.0649520" lon="105.7853640">
    <ele>6.6</ele>
   </trkpt>
   <trkpt lat="21.0648640" lon="105.7853180">
    <ele>6.6</ele>
   </trkpt>
   <trkpt lat="21.0647770" lon="105.7852860">
    <ele>6.8</ele>
   </trkpt>
   <trkpt lat="21.0647290" lon="105.7852770">
    <ele>6.8</ele>
   </trkpt>
   <trkpt lat="21.0646780" lon="105.7852700">
    <ele>6.8</ele>
   </trkpt>
   <trkpt lat="21.0645780" lon="105.7852680">
    <ele>6.8</ele>
   </trkpt>
   <trkpt lat="21.0644760" lon="105.7852760">
    <ele>6.8</ele>
   </trkpt>
   <trkpt lat="21.0643730" lon="105.7853040">
    <ele>7.0</ele>
   </trkpt>
   <trkpt lat="21.0642730" lon="105.7853180">
    <ele>7.0</ele>
   </trkpt>
   <trkpt lat="21.0641720" lon="105.7853540">
    <ele>6.8</ele>
   </trkpt>
   <trkpt lat="21.0640780" lon="105.7854020">
    <ele>6.8</ele>
   </trkpt>
   <trkpt lat="21.0639630" lon="105.7854750">
    <ele>7.0</ele>
   </trkpt>
   <trkpt lat="21.0638430" lon="105.7855970">
    <ele>7.0</ele>
   </trkpt>
   <trkpt lat="21.0637480" lon="105.7857380">
    <ele>7.0</ele>
   </trkpt>
   <trkpt lat="21.0636900" lon="105.7858680">
    <ele>7.0</ele>
   </trkpt>
   <trkpt lat="21.0636630" lon="105.7860020">
    <ele>7.0</ele>
   </trkpt>
   <trkpt lat="21.0636480" lon="105.7861110">
    <ele>7.0</ele>
   </trkpt>
   <trkpt lat="21.0636420" lon="105.7862160">
    <ele>7.0</ele>
   </trkpt>
   <trkpt lat="21.0636310" lon="105.7863220">
    <ele>7.2</ele>
   </trkpt>
   <trkpt lat="21.0636270" lon="105.7864110">
    <ele>7.4</ele>
   </trkpt>
   <trkpt lat="21.0636250" lon="105.7864910">
    <ele>7.4</ele>
   </trkpt>
   <trkpt lat="21.0636100" lon="105.7866100">
    <ele>7.4</ele>
   </trkpt>
   <trkpt lat="21.0635770" lon="105.7867250">
    <ele>7.6</ele>
   </trkpt>
   <trkpt lat="21.0635330" lon="105.7868010">
    <ele>7.6</ele>
   </trkpt>
   <trkpt lat="21.0634730" lon="105.7869050">
    <ele>7.6</ele>
   </trkpt>
   <trkpt lat="21.0634370" lon="105.7869770">
    <ele>7.6</ele>
   </trkpt>
   <trkpt lat="21.0633850" lon="105.7870700">
    <ele>7.8</ele>
   </trkpt>
   <trkpt lat="21.0633260" lon="105.7871680">
    <ele>7.8</ele>
   </trkpt>
   <trkpt lat="21.0632600" lon="105.7872860">
    <ele>7.8</ele>
   </trkpt>
   <trkpt lat="21.0632310" lon="105.7873960">
    <ele>7.8</ele>
   </trkpt>
   <trkpt lat="21.0632230" lon="105.7875140">
    <ele>7.8</ele>
   </trkpt>
   <trkpt lat="21.0632170" lon="105.7876190">
    <ele>8.0</ele>
   </trkpt>
   <trkpt lat="21.0632130" lon="105.7877010">
    <ele>8.0</ele>
   </trkpt>
   <trkpt lat="21.0632270" lon="105.7878140">
    <ele>8.0</ele>
   </trkpt>
   <trkpt lat="21.0632490" lon="105.7879270">
    <ele>8.0</ele>
   </trkpt>
   <trkpt lat="21.0632740" lon="105.7880000">
    <ele>8.0</ele>
   </trkpt>
   <trkpt lat="21.0633050" lon="105.7881170">
    <ele>7.8</ele>
   </trkpt>
   <trkpt lat="21.0633300" lon="105.7882330">
    <ele>8.0</ele>
   </trkpt>
   <trkpt lat="21.0633360" lon="105.7883690">
    <ele>8.0</ele>
   </trkpt>
   <trkpt lat="21.0633350" lon="105.7885040">
    <ele>7.8</ele>
   </trkpt>
   <trkpt lat="21.0633380" lon="105.7886080">
    <ele>8.0</ele>
   </trkpt>
   <trkpt lat="21.0633760" lon="105.7887130">
    <ele>7.8</ele>
   </trkpt>
   <trkpt lat="21.0634050" lon="105.7887220">
    <ele>7.8</ele>
   </trkpt>
   <trkpt lat="21.0635200" lon="105.7887240">
    <ele>7.6</ele>
   </trkpt>
   <trkpt lat="21.0636450" lon="105.7887460">
    <ele>7.6</ele>
   </trkpt>
   <trkpt lat="21.0637720" lon="105.7888020">
    <ele>7.8</ele>
   </trkpt>
   <trkpt lat="21.0639180" lon="105.7888800">
    <ele>7.6</ele>
   </trkpt>
   <trkpt lat="21.0640190" lon="105.7889250">
    <ele>7.6</ele>
   </trkpt>
   <trkpt lat="21.0641140" lon="105.7889620">
    <ele>7.6</ele>
   </trkpt>
   <trkpt lat="21.0642340" lon="105.7890190">
    <ele>7.6</ele>
   </trkpt>
   <trkpt lat="21.0643390" lon="105.7890510">
    <ele>7.8</ele>
   </trkpt>
   <trkpt lat="21.0644340" lon="105.7890900">
    <ele>7.8</ele>
   </trkpt>
   <trkpt lat="21.0645530" lon="105.7891290">
    <ele>7.8</ele>
   </trkpt>
   <trkpt lat="21.0646590" lon="105.7891490">
    <ele>7.8</ele>
   </trkpt>
   <trkpt lat="21.0647670" lon="105.7891570">
    <ele>7.8</ele>
   </trkpt>
   <trkpt lat="21.0648740" lon="105.7891470">
    <ele>7.8</ele>
   </trkpt>
   <trkpt lat="21.0649970" lon="105.7891040">
    <ele>7.8</ele>
   </trkpt>
   <trkpt lat="21.0651460" lon="105.7890340">
    <ele>7.8</ele>
   </trkpt>
   <trkpt lat="21.0652850" lon="105.7889410">
    <ele>8.0</ele>
   </trkpt>
   <trkpt lat="21.0653500" lon="105.7888540">
    <ele>8.0</ele>
   </trkpt>
   <trkpt lat="21.0654240" lon="105.7887380">
    <ele>8.0</ele>
   </trkpt>
   <trkpt lat="21.0654730" lon="105.7886350">
    <ele>8.0</ele>
   </trkpt>
   <trkpt lat="21.0655080" lon="105.7885480">
    <ele>8.0</ele>
   </trkpt>
   <trkpt lat="21.0655200" lon="105.7884440">
    <ele>8.0</ele>
   </trkpt>
   <trkpt lat="21.0655180" lon="105.7883690">
    <ele>8.2</ele>
   </trkpt>
   <trkpt lat="21.0655360" lon="105.7882580">
    <ele>8.2</ele>
   </trkpt>
   <trkpt lat="21.0655630" lon="105.7881530">
    <ele>8.2</ele>
   </trkpt>
   <trkpt lat="21.0656040" lon="105.7880370">
    <ele>8.2</ele>
   </trkpt>
   <trkpt lat="21.0656650" lon="105.7879340">
    <ele>8.4</ele>
   </trkpt>
   <trkpt lat="21.0657170" lon="105.7878670">
    <ele>8.4</ele>
   </trkpt>
   <trkpt lat="21.0657960" lon="105.7877900">
    <ele>8.6</ele>
   </trkpt>
   <trkpt lat="21.0658730" lon="105.7877200">
    <ele>8.6</ele>
   </trkpt>
   <trkpt lat="21.0659310" lon="105.7876680">
    <ele>8.6</ele>
   </trkpt>
   <trkpt lat="21.0659690" lon="105.7876340">
    <ele>8.6</ele>
   </trkpt>
   <trkpt lat="21.0660590" lon="105.7875100">
    <ele>8.8</ele>
   </trkpt>
   <trkpt lat="21.0661230" lon="105.7873690">
    <ele>8.8</ele>
   </trkpt>
   <trkpt lat="21.0661890" lon="105.7872430">
    <ele>8.8</ele>
   </trkpt>
   <trkpt lat="21.0662790" lon="105.7871780">
    <ele>8.8</ele>
   </trkpt>
   <trkpt lat="21.0664310" lon="105.7871330">
    <ele>9.0</ele>
   </trkpt>
   <trkpt lat="21.0665540" lon="105.7871030">
    <ele>9.0</ele>
   </trkpt>
   <trkpt lat="21.0666760" lon="105.7870470">
    <ele>9.0</ele>
   </trkpt>
   <trkpt lat="21.0667900" lon="105.7869810">
    <ele>9.0</ele>
   </trkpt>
   <trkpt lat="21.0668980" lon="105.7869060">
    <ele>9.0</ele>
   </trkpt>
   <trkpt lat="21.0670210" lon="105.7868170">
    <ele>9.0</ele>
   </trkpt>
   <trkpt lat="21.0671160" lon="105.7867310">
    <ele>9.0</ele>
   </trkpt>
   <trkpt lat="21.0672140" lon="105.7866420">
    <ele>9.0</ele>
   </trkpt>
   <trkpt lat="21.0672930" lon="105.7865410">
    <ele>9.0</ele>
   </trkpt>
   <trkpt lat="21.0673120" lon="105.7864240">
    <ele>9.0</ele>
   </trkpt>
   <trkpt lat="21.0672610" lon="105.7862930">
    <ele>9.2</ele>
   </trkpt>
   <trkpt lat="21.0671710" lon="105.7861370">
    <ele>9.0</ele>
   </trkpt>
   <trkpt lat="21.0671050" lon="105.7859820">
    <ele>9.4</ele>
   </trkpt>
   <trkpt lat="21.0670370" lon="105.7858350">
    <ele>9.2</ele>
   </trkpt>
   <trkpt lat="21.0669750" lon="105.7857440">
    <ele>9.2</ele>
   </trkpt>
   <trkpt lat="21.0669270" lon="105.7857280">
    <ele>9.2</ele>
   </trkpt>
   <trkpt lat="21.0668760" lon="105.7857170">
    <ele>9.2</ele>
   </trkpt>
   <trkpt lat="21.0667700" lon="105.7856940">
    <ele>9.0</ele>
   </trkpt>
   <trkpt lat="21.0666420" lon="105.7856830">
    <ele>8.8</ele>
   </trkpt>
   <trkpt lat="21.0664690" lon="105.7856790">
    <ele>8.8</ele>
   </trkpt>
   <trkpt lat="21.0663150" lon="105.7856940">
    <ele>8.6</ele>
   </trkpt>
   <trkpt lat="21.0662240" lon="105.7857390">
    <ele>8.4</ele>
   </trkpt>
   <trkpt lat="21.0661420" lon="105.7858000">
    <ele>8.6</ele>
   </trkpt>
   <trkpt lat="21.0660610" lon="105.7858760">
    <ele>8.6</ele>
   </trkpt>
   <trkpt lat="21.0659900" lon="105.7859560">
    <ele>8.6</ele>
   </trkpt>
   <trkpt lat="21.0659110" lon="105.7860310">
    <ele>8.6</ele>
   </trkpt>
   <trkpt lat="21.0658210" lon="105.7860780">
    <ele>8.8</ele>
   </trkpt>
   <trkpt lat="21.0657160" lon="105.7860830">
    <ele>8.4</ele>
   </trkpt>
   <trkpt lat="21.0656130" lon="105.7860520">
    <ele>8.2</ele>
   </trkpt>
   <trkpt lat="21.0655200" lon="105.7859960">
    <ele>8.2</ele>
   </trkpt>
   <trkpt lat="21.0654420" lon="105.7859220">
    <ele>8.2</ele>
   </trkpt>
   <trkpt lat="21.0653870" lon="105.7858280">
    <ele>8.2</ele>
   </trkpt>
   <trkpt lat="21.0653360" lon="105.7857300">
    <ele>8.2</ele>
   </trkpt>
   <trkpt lat="21.0652690" lon="105.7856350">
    <ele>8.2</ele>
   </trkpt>
   <trkpt lat="21.0651790" lon="105.7855360">
    <ele>8.2</ele>
   </trkpt>
   <trkpt lat="21.0651000" lon="105.7854640">
    <ele>8.0</ele>
   </trkpt>
   <trkpt lat="21.0650370" lon="105.7854230">
    <ele>8.2</ele>
   </trkpt>
   <trkpt lat="21.0649380" lon="105.7853790">
    <ele>8.2</ele>
   </trkpt>
   <trkpt lat="21.0648380" lon="105.7853390">
    <ele>8.2</ele>
   </trkpt>
   <trkpt lat="21.0647450" lon="105.7853050">
    <ele>8.2</ele>
   </trkpt>
   <trkpt lat="21.0646460" lon="105.7852960">
    <ele>8.0</ele>
   </trkpt>
   <trkpt lat="21.0645460" lon="105.7852930">
    <ele>8.0</ele>
   </trkpt>
   <trkpt lat="21.0644440" lon="105.7853070">
    <ele>8.0</ele>
   </trkpt>
   <trkpt lat="21.0643340" lon="105.7853250">
    <ele>7.8</ele>
   </trkpt>
   <trkpt lat="21.0642590" lon="105.7853450">
    <ele>7.8</ele>
   </trkpt>
   <trkpt lat="21.0641960" lon="105.7853730">
    <ele>7.6</ele>
   </trkpt>
   <trkpt lat="21.0640990" lon="105.7854180">
    <ele>7.8</ele>
   </trkpt>
   <trkpt lat="21.0640280" lon="105.7854620">
    <ele>7.8</ele>
   </trkpt>
   <trkpt lat="21.0639710" lon="105.7855130">
    <ele>7.6</ele>
   </trkpt>
   <trkpt lat="21.0639050" lon="105.7855660">
    <ele>7.8</ele>
   </trkpt>
   <trkpt lat="21.0638230" lon="105.7856450">
    <ele>7.6</ele>
   </trkpt>
   <trkpt lat="21.0637780" lon="105.7857090">
    <ele>7.6</ele>
   </trkpt>
   <trkpt lat="21.0637500" lon="105.7857570">
    <ele>7.6</ele>
   </trkpt>
   <trkpt lat="21.0637170" lon="105.7858400">
    <ele>7.6</ele>
   </trkpt>
   <trkpt lat="21.0636880" lon="105.7859440">
    <ele>7.6</ele>
   </trkpt>
   <trkpt lat="21.0636750" lon="105.7860510">
    <ele>7.4</ele>
   </trkpt>
   <trkpt lat="21.0636650" lon="105.7861640">
    <ele>7.4</ele>
   </trkpt>
   <trkpt lat="21.0636450" lon="105.7862690">
    <ele>7.6</ele>
   </trkpt>
   <trkpt lat="21.0636390" lon="105.7863780">
    <ele>7.6</ele>
   </trkpt>
   <trkpt lat="21.0636200" lon="105.7864930">
    <ele>7.8</ele>
   </trkpt>
   <trkpt lat="21.0636110" lon="105.7866040">
    <ele>7.8</ele>
   </trkpt>
   <trkpt lat="21.0635830" lon="105.7867150">
    <ele>7.8</ele>
   </trkpt>
   <trkpt lat="21.0635580" lon="105.7867880">
    <ele>8.0</ele>
   </trkpt>
   <trkpt lat="21.0635010" lon="105.7868800">
    <ele>8.0</ele>
   </trkpt>
   <trkpt lat="21.0634530" lon="105.7869490">
    <ele>8.0</ele>
   </trkpt>
   <trkpt lat="21.0633850" lon="105.7870460">
    <ele>8.0</ele>
   </trkpt>
   <trkpt lat="21.0633530" lon="105.7871120">
    <ele>8.0</ele>
   </trkpt>
   <trkpt lat="21.0633090" lon="105.7872060">
    <ele>8.0</ele>
   </trkpt>
   <trkpt lat="21.0632620" lon="105.7873080">
    <ele>7.8</ele>
   </trkpt>
   <trkpt lat="21.0632350" lon="105.7874180">
    <ele>8.0</ele>
   </trkpt>
   <trkpt lat="21.0632260" lon="105.7875270">
    <ele>8.0</ele>
   </trkpt>
   <trkpt lat="21.0632200" lon="105.7876330">
    <ele>8.0</ele>
   </trkpt>
   <trkpt lat="21.0632260" lon="105.7877410">
    <ele>8.0</ele>
   </trkpt>
   <trkpt lat="21.0632340" lon="105.7878510">
    <ele>8.2</ele>
   </trkpt>
   <trkpt lat="21.0632520" lon="105.7879940">
    <ele>8.2</ele>
   </trkpt>
   <trkpt lat="21.0632810" lon="105.7881180">
    <ele>8.2</ele>
   </trkpt>
   <trkpt lat="21.0633120" lon="105.7882220">
    <ele>8.2</ele>
   </trkpt>
   <trkpt lat="21.0633330" lon="105.7883260">
    <ele>8.2</ele>
   </trkpt>
   <trkpt lat="21.0633290" lon="105.7884390">
    <ele>8.2</ele>
   </trkpt>
   <trkpt lat="21.0633320" lon="105.7884650">
    <ele>8.2</ele>
   </trkpt>
   <trkpt lat="21.0633350" lon="105.7885680">
    <ele>8.2</ele>
   </trkpt>
   <trkpt lat="21.0633600" lon="105.7886850">
    <ele>8.2</ele>
   </trkpt>
   <trkpt lat="21.0633790" lon="105.7887050">
    <ele>8.2</ele>
   </trkpt>
   <trkpt lat="21.0634220" lon="105.7887220">
    <ele>8.2</ele>
   </trkpt>
   <trkpt lat="21.0634970" lon="105.7887270">
    <ele>8.0</ele>
   </trkpt>
   <trkpt lat="21.0636080" lon="105.7887370">
    <ele>8.2</ele>
   </trkpt>
   <trkpt lat="21.0637180" lon="105.7887650">
    <ele>8.2</ele>
   </trkpt>
   <trkpt lat="21.0637930" lon="105.7887850">
    <ele>8.2</ele>
   </trkpt>
   <trkpt lat="21.0638810" lon="105.7888350">
    <ele>8.0</ele>
   </trkpt>
   <trkpt lat="21.0639770" lon="105.7888970">
    <ele>8.0</ele>
   </trkpt>
   <trkpt lat="21.0640980" lon="105.7889530">
    <ele>8.0</ele>
   </trkpt>
   <trkpt lat="21.0641980" lon="105.7889830">
    <ele>8.2</ele>
   </trkpt>
   <trkpt lat="21.0643010" lon="105.7890130">
    <ele>8.0</ele>
   </trkpt>
   <trkpt lat="21.0643990" lon="105.7890490">
    <ele>8.2</ele>
   </trkpt>
   <trkpt lat="21.0644900" lon="105.7890880">
    <ele>8.4</ele>
   </trkpt>
   <trkpt lat="21.0646160" lon="105.7891120">
    <ele>8.4</ele>
   </trkpt>
   <trkpt lat="21.0647700" lon="105.7891210">
    <ele>8.4</ele>
   </trkpt>
   <trkpt lat="21.0649020" lon="105.7891280">
    <ele>8.6</ele>
   </trkpt>
   <trkpt lat="21.0650030" lon="105.7891050">
    <ele>8.4</ele>
   </trkpt>
   <trkpt lat="21.0650950" lon="105.7890640">
    <ele>8.4</ele>
   </trkpt>
   <trkpt lat="21.0651850" lon="105.7890110">
    <ele>8.4</ele>
   </trkpt>
   <trkpt lat="21.0652810" lon="105.7889390">
    <ele>8.4</ele>
   </trkpt>
   <trkpt lat="21.0653610" lon="105.7888320">
    <ele>8.6</ele>
   </trkpt>
   <trkpt lat="21.0653900" lon="105.7887890">
    <ele>8.6</ele>
   </trkpt>
   <trkpt lat="21.0654160" lon="105.7887430">
    <ele>8.6</ele>
   </trkpt>
   <trkpt lat="21.0654660" lon="105.7886410">
    <ele>8.6</ele>
   </trkpt>
   <trkpt lat="21.0654970" lon="105.7885330">
    <ele>8.6</ele>
   </trkpt>
   <trkpt lat="21.0655180" lon="105.7884470">
    <ele>8.6</ele>
   </trkpt>
   <trkpt lat="21.0655310" lon="105.7883350">
    <ele>8.6</ele>
   </trkpt>
   <trkpt lat="21.0655490" lon="105.7882200">
    <ele>8.6</ele>
   </trkpt>
   <trkpt lat="21.0655910" lon="105.7880900">
    <ele>8.8</ele>
   </trkpt>
   <trkpt lat="21.0656450" lon="105.7879710">
    <ele>8.8</ele>
   </trkpt>
   <trkpt lat="21.0657160" lon="105.7878820">
    <ele>8.8</ele>
   </trkpt>
   <trkpt lat="21.0657870" lon="105.7877950">
    <ele>8.8</ele>
   </trkpt>
   <trkpt lat="21.0658890" lon="105.7877090">
    <ele>9.0</ele>
   </trkpt>
   <trkpt lat="21.0659680" lon="105.7876380">
    <ele>9.0</ele>
   </trkpt>
   <trkpt lat="21.0660390" lon="105.7875570">
    <ele>9.0</ele>
   </trkpt>
   <trkpt lat="21.0660630" lon="105.7875050">
    <ele>9.2</ele>
   </trkpt>
   <trkpt lat="21.0660810" lon="105.7874520">
    <ele>9.2</ele>
   </trkpt>
   <trkpt lat="21.0661160" lon="105.7873740">
    <ele>9.2</ele>
   </trkpt>
   <trkpt lat="21.0661470" lon="105.7872710">
    <ele>9.0</ele>
   </trkpt>
   <trkpt lat="21.0662310" lon="105.7872100">
    <ele>9.2</ele>
   </trkpt>
   <trkpt lat="21.0663570" lon="105.7871710">
    <ele>9.2</ele>
   </trkpt>
   <trkpt lat="21.0664500" lon="105.7871280">
    <ele>9.4</ele>
   </trkpt>
   <trkpt lat="21.0665120" lon="105.7870820">
    <ele>9.4</ele>
   </trkpt>
   <trkpt lat="21.0666000" lon="105.7870500">
    <ele>9.4</ele>
   </trkpt>
   <trkpt lat="21.0665990" lon="105.7870430">
    <ele>9.4</ele>
   </trkpt>
   <trkpt lat="21.0665930" lon="105.7870520">
    <ele>9.2</ele>
   </trkpt>
   <trkpt lat="21.0666030" lon="105.7870540">
    <ele>9.2</ele>
   </trkpt>
   <trkpt lat="21.0666240" lon="105.7870490">
    <ele>9.2</ele>
   </trkpt>
   <trkpt lat="21.0667270" lon="105.7869970">
    <ele>9.2</ele>
   </trkpt>
   <trkpt lat="21.0668490" lon="105.7869330">
    <ele>9.4</ele>
   </trkpt>
   <trkpt lat="21.0669680" lon="105.7868580">
    <ele>9.4</ele>
   </trkpt>
   <trkpt lat="21.0670520" lon="105.7867870">
    <ele>9.6</ele>
   </trkpt>
   <trkpt lat="21.0671190" lon="105.7867280">
    <ele>9.6</ele>
   </trkpt>
   <trkpt lat="21.0671330" lon="105.7867070">
    <ele>9.6</ele>
   </trkpt>
   <trkpt lat="21.0672070" lon="105.7866250">
    <ele>9.6</ele>
   </trkpt>
   <trkpt lat="21.0672860" lon="105.7865470">
    <ele>9.6</ele>
   </trkpt>
   <trkpt lat="21.0673170" lon="105.7864150">
    <ele>9.8</ele>
   </trkpt>
   <trkpt lat="21.0672560" lon="105.7862870">
    <ele>9.6</ele>
   </trkpt>
   <trkpt lat="21.0672080" lon="105.7861910">
    <ele>9.6</ele>
   </trkpt>
   <trkpt lat="21.0671490" lon="105.7861000">
    <ele>9.6</ele>
   </trkpt>
   <trkpt lat="21.0670830" lon="105.7859710">
    <ele>9.6</ele>
   </trkpt>
   <trkpt lat="21.0670640" lon="105.7859080">
    <ele>9.6</ele>
   </trkpt>
   <trkpt lat="21.0670060" lon="105.7857740">
    <ele>9.4</ele>
   </trkpt>
   <trkpt lat="21.0668780" lon="105.7857120">
    <ele>9.6</ele>
   </trkpt>
   <trkpt lat="21.0667430" lon="105.7856880">
    <ele>9.4</ele>
   </trkpt>
   <trkpt lat="21.0666350" lon="105.7856750">
    <ele>9.2</ele>
   </trkpt>
   <trkpt lat="21.0665380" lon="105.7856710">
    <ele>9.2</ele>
   </trkpt>
   <trkpt lat="21.0664360" lon="105.7856750">
    <ele>9.2</ele>
   </trkpt>
   <trkpt lat="21.0663100" lon="105.7857110">
    <ele>9.2</ele>
   </trkpt>
   <trkpt lat="21.0661650" lon="105.7857880">
    <ele>9.2</ele>
   </trkpt>
   <trkpt lat="21.0660520" lon="105.7859020">
    <ele>9.4</ele>
   </trkpt>
   <trkpt lat="21.0659550" lon="105.7859980">
    <ele>9.4</ele>
   </trkpt>
   <trkpt lat="21.0658360" lon="105.7860750">
    <ele>9.4</ele>
   </trkpt>
   <trkpt lat="21.0657280" lon="105.7860820">
    <ele>9.4</ele>
   </trkpt>
   <trkpt lat="21.0656320" lon="105.7860600">
    <ele>9.4</ele>
   </trkpt>
   <trkpt lat="21.0655400" lon="105.7859980">
    <ele>9.4</ele>
   </trkpt>
   <trkpt lat="21.0654430" lon="105.7858720">
    <ele>9.2</ele>
   </trkpt>
   <trkpt lat="21.0653310" lon="105.7856870">
    <ele>9.4</ele>
   </trkpt>
   <trkpt lat="21.0652490" lon="105.7855830">
    <ele>9.2</ele>
   </trkpt>
   <trkpt lat="21.0651620" lon="105.7854940">
    <ele>9.2</ele>
   </trkpt>
   <trkpt lat="21.0650560" lon="105.7854200">
    <ele>9.2</ele>
   </trkpt>
   <trkpt lat="21.0649750" lon="105.7853810">
    <ele>9.4</ele>
   </trkpt>
   <trkpt lat="21.0648830" lon="105.7853390">
    <ele>9.4</ele>
   </trkpt>
   <trkpt lat="21.0647980" lon="105.7853220">
    <ele>9.4</ele>
   </trkpt>
   <trkpt lat="21.0646570" lon="105.7852840">
    <ele>9.2</ele>
   </trkpt>
   <trkpt lat="21.0645710" lon="105.7852890">
    <ele>9.2</ele>
   </trkpt>
   <trkpt lat="21.0644420" lon="105.7852930">
    <ele>9.4</ele>
   </trkpt>
   <trkpt lat="21.0643210" lon="105.7853150">
    <ele>9.4</ele>
   </trkpt>
   <trkpt lat="21.0642090" lon="105.7853550">
    <ele>9.2</ele>
   </trkpt>
   <trkpt lat="21.0640900" lon="105.7854040">
    <ele>9.2</ele>
   </trkpt>
   <trkpt lat="21.0639850" lon="105.7854680">
    <ele>9.4</ele>
   </trkpt>
   <trkpt lat="21.0638890" lon="105.7855550">
    <ele>9.4</ele>
   </trkpt>
   <trkpt lat="21.0637880" lon="105.7856790">
    <ele>9.2</ele>
   </trkpt>
   <trkpt lat="21.0637220" lon="105.7858250">
    <ele>9.2</ele>
   </trkpt>
   <trkpt lat="21.0636770" lon="105.7859850">
    <ele>9.2</ele>
   </trkpt>
   <trkpt lat="21.0636560" lon="105.7861160">
    <ele>9.4</ele>
   </trkpt>
   <trkpt lat="21.0636480" lon="105.7862430">
    <ele>9.4</ele>
   </trkpt>
   <trkpt lat="21.0636440" lon="105.7863720">
    <ele>9.4</ele>
   </trkpt>
   <trkpt lat="21.0636290" lon="105.7864990">
    <ele>9.6</ele>
   </trkpt>
   <trkpt lat="21.0636260" lon="105.7865260">
    <ele>9.6</ele>
   </trkpt>
   <trkpt lat="21.0636090" lon="105.7866310">
    <ele>9.6</ele>
   </trkpt>
   <trkpt lat="21.0635820" lon="105.7867590">
    <ele>9.6</ele>
   </trkpt>
   <trkpt lat="21.0635330" lon="105.7868760">
    <ele>9.8</ele>
   </trkpt>
   <trkpt lat="21.0634860" lon="105.7869610">
    <ele>9.8</ele>
   </trkpt>
   <trkpt lat="21.0634210" lon="105.7870440">
    <ele>9.6</ele>
   </trkpt>
   <trkpt lat="21.0633710" lon="105.7871230">
    <ele>9.6</ele>
   </trkpt>
   <trkpt lat="21.0633140" lon="105.7872380">
    <ele>9.6</ele>
   </trkpt>
   <trkpt lat="21.0632810" lon="105.7873310">
    <ele>9.8</ele>
   </trkpt>
   <trkpt lat="21.0632600" lon="105.7874160">
    <ele>9.8</ele>
   </trkpt>
   <trkpt lat="21.0632440" lon="105.7875180">
    <ele>9.8</ele>
   </trkpt>
   <trkpt lat="21.0632290" lon="105.7876410">
    <ele>9.8</ele>
   </trkpt>
   <trkpt lat="21.0632340" lon="105.7877310">
    <ele>9.8</ele>
   </trkpt>
   <trkpt lat="21.0632510" lon="105.7878340">
    <ele>9.8</ele>
   </trkpt>
   <trkpt lat="21.0632700" lon="105.7879720">
    <ele>10.0</ele>
   </trkpt>
   <trkpt lat="21.0632980" lon="105.7880990">
    <ele>9.8</ele>
   </trkpt>
   <trkpt lat="21.0633320" lon="105.7881810">
    <ele>9.8</ele>
   </trkpt>
   <trkpt lat="21.0633510" lon="105.7882840">
    <ele>9.8</ele>
   </trkpt>
   <trkpt lat="21.0633710" lon="105.7883810">
    <ele>9.8</ele>
   </trkpt>
   <trkpt lat="21.0633670" lon="105.7884910">
    <ele>10.0</ele>
   </trkpt>
   <trkpt lat="21.0633720" lon="105.7885780">
    <ele>9.8</ele>
   </trkpt>
   <trkpt lat="21.0633840" lon="105.7887000">
    <ele>9.8</ele>
   </trkpt>
   <trkpt lat="21.0634310" lon="105.7887240">
    <ele>9.8</ele>
   </trkpt>
   <trkpt lat="21.0634620" lon="105.7887280">
    <ele>9.8</ele>
   </trkpt>
   <trkpt lat="21.0635380" lon="105.7887260">
    <ele>9.6</ele>
   </trkpt>
   <trkpt lat="21.0636320" lon="105.7887470">
    <ele>9.6</ele>
   </trkpt>
   <trkpt lat="21.0637190" lon="105.7887630">
    <ele>9.4</ele>
   </trkpt>
   <trkpt lat="21.0638120" lon="105.7887940">
    <ele>9.4</ele>
   </trkpt>
   <trkpt lat="21.0639240" lon="105.7888400">
    <ele>9.6</ele>
   </trkpt>
   <trkpt lat="21.0640280" lon="105.7889010">
    <ele>9.6</ele>
   </trkpt>
   <trkpt lat="21.0641420" lon="105.7889570">
    <ele>9.6</ele>
   </trkpt>
   <trkpt lat="21.0642520" lon="105.7890210">
    <ele>9.6</ele>
   </trkpt>
   <trkpt lat="21.0643340" lon="105.7890390">
    <ele>9.6</ele>
   </trkpt>
   <trkpt lat="21.0644200" lon="105.7890850">
    <ele>9.6</ele>
   </trkpt>
   <trkpt lat="21.0645350" lon="105.7891200">
    <ele>9.8</ele>
   </trkpt>
   <trkpt lat="21.0646600" lon="105.7891320">
    <ele>9.8</ele>
   </trkpt>
   <trkpt lat="21.0647480" lon="105.7891350">
    <ele>9.8</ele>
   </trkpt>
   <trkpt lat="21.0648410" lon="105.7891340">
    <ele>9.6</ele>
   </trkpt>
   <trkpt lat="21.0649570" lon="105.7890960">
    <ele>9.6</ele>
   </trkpt>
   <trkpt lat="21.0650710" lon="105.7890500">
    <ele>9.6</ele>
   </trkpt>
   <trkpt lat="21.0651840" lon="105.7890110">
    <ele>9.6</ele>
   </trkpt>
   <trkpt lat="21.0652780" lon="105.7889440">
    <ele>9.8</ele>
   </trkpt>
   <trkpt lat="21.0653570" lon="105.7888510">
    <ele>9.8</ele>
   </trkpt>
   <trkpt lat="21.0653710" lon="105.7888260">
    <ele>9.8</ele>
   </trkpt>
   <trkpt lat="21.0654270" lon="105.7887490">
    <ele>9.8</ele>
   </trkpt>
   <trkpt lat="21.0654830" lon="105.7886380">
    <ele>9.8</ele>
   </trkpt>
   <trkpt lat="21.0655160" lon="105.7885110">
    <ele>9.8</ele>
   </trkpt>
   <trkpt lat="21.0655480" lon="105.7883470">
    <ele>9.8</ele>
   </trkpt>
   <trkpt lat="21.0655750" lon="105.7882180">
    <ele>9.8</ele>
   </trkpt>
   <trkpt lat="21.0655820" lon="105.7881880">
    <ele>9.8</ele>
   </trkpt>
   <trkpt lat="21.0656380" lon="105.7880010">
    <ele>9.8</ele>
   </trkpt>
   <trkpt lat="21.0657170" lon="105.7878530">
    <ele>10.0</ele>
   </trkpt>
   <trkpt lat="21.0658290" lon="105.7877570">
    <ele>10.0</ele>
   </trkpt>
   <trkpt lat="21.0659180" lon="105.7876740">
    <ele>10.2</ele>
   </trkpt>
   <trkpt lat="21.0660190" lon="105.7875880">
    <ele>10.0</ele>
   </trkpt>
   <trkpt lat="21.0660720" lon="105.7874990">
    <ele>10.0</ele>
   </trkpt>
   <trkpt lat="21.0661120" lon="105.7873690">
    <ele>10.0</ele>
   </trkpt>
   <trkpt lat="21.0661790" lon="105.7872560">
    <ele>10.2</ele>
   </trkpt>
   <trkpt lat="21.0662800" lon="105.7871790">
    <ele>10.4</ele>
   </trkpt>
   <trkpt lat="21.0663610" lon="105.7871340">
    <ele>10.4</ele>
   </trkpt>
   <trkpt lat="21.0664520" lon="105.7870960">
    <ele>10.4</ele>
   </trkpt>
   <trkpt lat="21.0665360" lon="105.7870630">
    <ele>10.4</ele>
   </trkpt>
   <trkpt lat="21.0666540" lon="105.7870160">
    <ele>10.4</ele>
   </trkpt>
   <trkpt lat="21.0667770" lon="105.7869740">
    <ele>10.6</ele>
   </trkpt>
   <trkpt lat="21.0669060" lon="105.7868980">
    <ele>10.4</ele>
   </trkpt>
   <trkpt lat="21.0670560" lon="105.7867920">
    <ele>10.4</ele>
   </trkpt>
   <trkpt lat="21.0671290" lon="105.7867200">
    <ele>10.4</ele>
   </trkpt>
   <trkpt lat="21.0671700" lon="105.7866780">
    <ele>10.4</ele>
   </trkpt>
   <trkpt lat="21.0672770" lon="105.7865540">
    <ele>10.4</ele>
   </trkpt>
   <trkpt lat="21.0673120" lon="105.7864260">
    <ele>10.4</ele>
   </trkpt>
   <trkpt lat="21.0672720" lon="105.7863070">
    <ele>10.4</ele>
   </trkpt>
   <trkpt lat="21.0672250" lon="105.7862120">
    <ele>10.6</ele>
   </trkpt>
   <trkpt lat="21.0671790" lon="105.7861290">
    <ele>10.6</ele>
   </trkpt>
   <trkpt lat="21.0671670" lon="105.7860950">
    <ele>10.6</ele>
   </trkpt>
   <trkpt lat="21.0671340" lon="105.7860450">
    <ele>10.6</ele>
   </trkpt>
   <trkpt lat="21.0670820" lon="105.7859240">
    <ele>10.6</ele>
   </trkpt>
   <trkpt lat="21.0669990" lon="105.7857840">
    <ele>10.6</ele>
   </trkpt>
   <trkpt lat="21.0668830" lon="105.7857260">
    <ele>10.6</ele>
   </trkpt>
   <trkpt lat="21.0667890" lon="105.7857160">
    <ele>10.6</ele>
   </trkpt>
   <trkpt lat="21.0666610" lon="105.7856920">
    <ele>10.4</ele>
   </trkpt>
   <trkpt lat="21.0665440" lon="105.7856690">
    <ele>10.2</ele>
   </trkpt>
   <trkpt lat="21.0664240" lon="105.7856700">
    <ele>10.2</ele>
   </trkpt>
   <trkpt lat="21.0663120" lon="105.7857120">
    <ele>10.2</ele>
   </trkpt>
   <trkpt lat="21.0662050" lon="105.7857720">
    <ele>10.0</ele>
   </trkpt>
   <trkpt lat="21.0661320" lon="105.7858360">
    <ele>10.0</ele>
   </trkpt>
   <trkpt lat="21.0660470" lon="105.7859210">
    <ele>10.0</ele>
   </trkpt>
   <trkpt lat="21.0659590" lon="105.7860210">
    <ele>10.0</ele>
   </trkpt>
   <trkpt lat="21.0658460" lon="105.7860730">
    <ele>10.0</ele>
   </trkpt>
   <trkpt lat="21.0657250" lon="105.7860680">
    <ele>10.0</ele>
   </trkpt>
   <trkpt lat="21.0656090" lon="105.7860310">
    <ele>9.8</ele>
   </trkpt>
   <trkpt lat="21.0654640" lon="105.7859020">
    <ele>9.8</ele>
   </trkpt>
   <trkpt lat="21.0653590" lon="105.7857180">
    <ele>9.8</ele>
   </trkpt>
   <trkpt lat="21.0652620" lon="105.7855790">
    <ele>9.8</ele>
   </trkpt>
   <trkpt lat="21.0652180" lon="105.7855300">
    <ele>9.8</ele>
   </trkpt>
   <trkpt lat="21.0651210" lon="105.7854580">
    <ele>9.8</ele>
   </trkpt>
   <trkpt lat="21.0650050" lon="105.7853990">
    <ele>9.8</ele>
   </trkpt>
   <trkpt lat="21.0649170" lon="105.7853560">
    <ele>9.8</ele>
   </trkpt>
   <trkpt lat="21.0648370" lon="105.7853230">
    <ele>9.8</ele>
   </trkpt>
   <trkpt lat="21.0647250" lon="105.7852860">
    <ele>9.8</ele>
   </trkpt>
   <trkpt lat="21.0646060" lon="105.7852790">
    <ele>9.6</ele>
   </trkpt>
   <trkpt lat="21.0645040" lon="105.7852810">
    <ele>9.8</ele>
   </trkpt>
   <trkpt lat="21.0644150" lon="105.7852890">
    <ele>9.8</ele>
   </trkpt>
   <trkpt lat="21.0643190" lon="105.7853080">
    <ele>9.8</ele>
   </trkpt>
   <trkpt lat="21.0642350" lon="105.7853430">
    <ele>9.8</ele>
   </trkpt>
   <trkpt lat="21.0641410" lon="105.7853740">
    <ele>9.8</ele>
   </trkpt>
   <trkpt lat="21.0640610" lon="105.7854160">
    <ele>9.8</ele>
   </trkpt>
   <trkpt lat="21.0639590" lon="105.7854870">
    <ele>9.8</ele>
   </trkpt>
   <trkpt lat="21.0638620" lon="105.7855830">
    <ele>9.8</ele>
   </trkpt>
   <trkpt lat="21.0638020" lon="105.7856600">
    <ele>9.6</ele>
   </trkpt>
   <trkpt lat="21.0637670" lon="105.7857140">
    <ele>9.6</ele>
   </trkpt>
   <trkpt lat="21.0637030" lon="105.7858660">
    <ele>9.6</ele>
   </trkpt>
   <trkpt lat="21.0636550" lon="105.7860350">
    <ele>9.6</ele>
   </trkpt>
   <trkpt lat="21.0636330" lon="105.7861990">
    <ele>9.8</ele>
   </trkpt>
   <trkpt lat="21.0636250" lon="105.7863680">
    <ele>10.0</ele>
   </trkpt>
   <trkpt lat="21.0636150" lon="105.7865320">
    <ele>10.0</ele>
   </trkpt>
   <trkpt lat="21.0635990" lon="105.7866640">
    <ele>10.0</ele>
   </trkpt>
   <trkpt lat="21.0635830" lon="105.7867970">
    <ele>10.0</ele>
   </trkpt>
   <trkpt lat="21.0635320" lon="105.7869200">
    <ele>10.0</ele>
   </trkpt>
   <trkpt lat="21.0634560" lon="105.7870320">
    <ele>10.2</ele>
   </trkpt>
   <trkpt lat="21.0634180" lon="105.7870850">
    <ele>10.2</ele>
   </trkpt>
   <trkpt lat="21.0633780" lon="105.7871310">
    <ele>10.2</ele>
   </trkpt>
   <trkpt lat="21.0633130" lon="105.7872400">
    <ele>10.2</ele>
   </trkpt>
   <trkpt lat="21.0632810" lon="105.7873740">
    <ele>10.2</ele>
   </trkpt>
   <trkpt lat="21.0632630" lon="105.7875100">
    <ele>10.2</ele>
   </trkpt>
   <trkpt lat="21.0632640" lon="105.7876440">
    <ele>10.2</ele>
   </trkpt>
   <trkpt lat="21.0632590" lon="105.7877480">
    <ele>10.2</ele>
   </trkpt>
   <trkpt lat="21.0632710" lon="105.7878330">
    <ele>10.2</ele>
   </trkpt>
   <trkpt lat="21.0632750" lon="105.7879410">
    <ele>10.2</ele>
   </trkpt>
   <trkpt lat="21.0633020" lon="105.7880330">
    <ele>10.2</ele>
   </trkpt>
   <trkpt lat="21.0633140" lon="105.7881400">
    <ele>10.0</ele>
   </trkpt>
   <trkpt lat="21.0633330" lon="105.7882320">
    <ele>10.2</ele>
   </trkpt>
   <trkpt lat="21.0633450" lon="105.7883690">
    <ele>10.2</ele>
   </trkpt>
   <trkpt lat="21.0633430" lon="105.7885750">
    <ele>10.2</ele>
   </trkpt>
   <trkpt lat="21.0633780" lon="105.7887030">
    <ele>10.2</ele>
   </trkpt>
   <trkpt lat="21.0634560" lon="105.7887410">
    <ele>10.0</ele>
   </trkpt>
   <trkpt lat="21.0635990" lon="105.7887590">
    <ele>10.0</ele>
   </trkpt>
   <trkpt lat="21.0637170" lon="105.7887900">
    <ele>9.8</ele>
   </trkpt>
   <trkpt lat="21.0638390" lon="105.7888320">
    <ele>10.0</ele>
   </trkpt>
   <trkpt lat="21.0639590" lon="105.7888740">
    <ele>10.0</ele>
   </trkpt>
   <trkpt lat="21.0640850" lon="105.7889250">
    <ele>9.8</ele>
   </trkpt>
   <trkpt lat="21.0642020" lon="105.7889750">
    <ele>10.0</ele>
   </trkpt>
   <trkpt lat="21.0642900" lon="105.7890130">
    <ele>10.0</ele>
   </trkpt>
   <trkpt lat="21.0643710" lon="105.7890400">
    <ele>10.0</ele>
   </trkpt>
   <trkpt lat="21.0644600" lon="105.7890800">
    <ele>10.0</ele>
   </trkpt>
   <trkpt lat="21.0645750" lon="105.7891230">
    <ele>10.0</ele>
   </trkpt>
   <trkpt lat="21.0646960" lon="105.7891470">
    <ele>10.0</ele>
   </trkpt>
   <trkpt lat="21.0648500" lon="105.7891560">
    <ele>9.8</ele>
   </trkpt>
   <trkpt lat="21.0650070" lon="105.7891210">
    <ele>9.8</ele>
   </trkpt>
   <trkpt lat="21.0651790" lon="105.7890430">
    <ele>10.0</ele>
   </trkpt>
   <trkpt lat="21.0653220" lon="105.7889080">
    <ele>10.0</ele>
   </trkpt>
   <trkpt lat="21.0654180" lon="105.7887690">
    <ele>10.0</ele>
   </trkpt>
   <trkpt lat="21.0654770" lon="105.7886480">
    <ele>10.0</ele>
   </trkpt>
   <trkpt lat="21.0655140" lon="105.7885160">
    <ele>10.0</ele>
   </trkpt>
   <trkpt lat="21.0655470" lon="105.7883840">
    <ele>10.0</ele>
   </trkpt>
   <trkpt lat="21.0655670" lon="105.7882500">
    <ele>10.0</ele>
   </trkpt>
   <trkpt lat="21.0655940" lon="105.7881120">
    <ele>10.0</ele>
   </trkpt>
   <trkpt lat="21.0656310" lon="105.7879880">
    <ele>10.0</ele>
   </trkpt>
   <trkpt lat="21.0657100" lon="105.7878770">
    <ele>10.2</ele>
   </trkpt>
   <trkpt lat="21.0657960" lon="105.7877720">
    <ele>10.2</ele>
   </trkpt>
   <trkpt lat="21.0658880" lon="105.7876900">
    <ele>10.2</ele>
   </trkpt>
   <trkpt lat="21.0659860" lon="105.7876120">
    <ele>10.4</ele>
   </trkpt>
   <trkpt lat="21.0660990" lon="105.7874660">
    <ele>10.4</ele>
   </trkpt>
   <trkpt lat="21.0661590" lon="105.7873130">
    <ele>10.4</ele>
   </trkpt>
   <trkpt lat="21.0662250" lon="105.7872060">
    <ele>10.4</ele>
   </trkpt>
   <trkpt lat="21.0663290" lon="105.7871440">
    <ele>10.6</ele>
   </trkpt>
   <trkpt lat="21.0664800" lon="105.7870900">
    <ele>10.6</ele>
   </trkpt>
   <trkpt lat="21.0665050" lon="105.7870750">
    <ele>10.6</ele>
   </trkpt>
   <trkpt lat="21.0665970" lon="105.7870530">
    <ele>10.6</ele>
   </trkpt>
   <trkpt lat="21.0667380" lon="105.7869990">
    <ele>10.8</ele>
   </trkpt>
   <trkpt lat="21.0668770" lon="105.7869360">
    <ele>10.6</ele>
   </trkpt>
   <trkpt lat="21.0670070" lon="105.7868390">
    <ele>10.8</ele>
   </trkpt>
   <trkpt lat="21.0671260" lon="105.7867250">
    <ele>10.8</ele>
   </trkpt>
   <trkpt lat="21.0672090" lon="105.7866380">
    <ele>10.8</ele>
   </trkpt>
   <trkpt lat="21.0672900" lon="105.7865430">
    <ele>10.8</ele>
   </trkpt>
   <trkpt lat="21.0673020" lon="105.7864120">
    <ele>11.0</ele>
   </trkpt>
   <trkpt lat="21.0672670" lon="105.7862880">
    <ele>11.0</ele>
   </trkpt>
   <trkpt lat="21.0671780" lon="105.7861150">
    <ele>11.0</ele>
   </trkpt>
   <trkpt lat="21.0670940" lon="105.7859390">
    <ele>11.0</ele>
   </trkpt>
   <trkpt lat="21.0670820" lon="105.7859120">
    <ele>11.2</ele>
   </trkpt>
   <trkpt lat="21.0670070" lon="105.7857680">
    <ele>11.0</ele>
   </trkpt>
   <trkpt lat="21.0668930" lon="105.7857030">
    <ele>10.8</ele>
   </trkpt>
   <trkpt lat="21.0667660" lon="105.7856740">
    <ele>10.8</ele>
   </trkpt>
   <trkpt lat="21.0666480" lon="105.7856570">
    <ele>10.6</ele>
   </trkpt>
   <trkpt lat="21.0665590" lon="105.7856500">
    <ele>10.6</ele>
   </trkpt>
   <trkpt lat="21.0664270" lon="105.7856500">
    <ele>10.6</ele>
   </trkpt>
   <trkpt lat="21.0663190" lon="105.7856970">
    <ele>10.6</ele>
   </trkpt>
   <trkpt lat="21.0662300" lon="105.7857530">
    <ele>10.8</ele>
   </trkpt>
   <trkpt lat="21.0661220" lon="105.7858360">
    <ele>10.8</ele>
   </trkpt>
   <trkpt lat="21.0660320" lon="105.7859200">
    <ele>10.8</ele>
   </trkpt>
   <trkpt lat="21.0659450" lon="105.7860120">
    <ele>10.8</ele>
   </trkpt>
   <trkpt lat="21.0658360" lon="105.7860810">
    <ele>11.0</ele>
   </trkpt>
   <trkpt lat="21.0657010" lon="105.7860870">
    <ele>11.0</ele>
   </trkpt>
   <trkpt lat="21.0656390" lon="105.7860680">
    <ele>10.8</ele>
   </trkpt>
   <trkpt lat="21.0656140" lon="105.7860610">
    <ele>10.8</ele>
   </trkpt>
   <trkpt lat="21.0655840" lon="105.7860320">
    <ele>10.8</ele>
   </trkpt>
   <trkpt lat="21.0655330" lon="105.7859810">
    <ele>10.8</ele>
   </trkpt>
   <trkpt lat="21.0654470" lon="105.7858870">
    <ele>10.8</ele>
   </trkpt>
   <trkpt lat="21.0653740" lon="105.7857760">
    <ele>11.0</ele>
   </trkpt>
   <trkpt lat="21.0653140" lon="105.7856570">
    <ele>10.8</ele>
   </trkpt>
   <trkpt lat="21.0652230" lon="105.7855480">
    <ele>10.8</ele>
   </trkpt>
   <trkpt lat="21.0651250" lon="105.7854610">
    <ele>10.8</ele>
   </trkpt>
   <trkpt lat="21.0650520" lon="105.7854070">
    <ele>10.8</ele>
   </trkpt>
   <trkpt lat="21.0649380" lon="105.7853530">
    <ele>11.0</ele>
   </trkpt>
   <trkpt lat="21.0648230" lon="105.7853030">
    <ele>11.0</ele>
   </trkpt>
   <trkpt lat="21.0647140" lon="105.7852700">
    <ele>11.0</ele>
   </trkpt>
   <trkpt lat="21.0645930" lon="105.7852630">
    <ele>11.0</ele>
   </trkpt>
   <trkpt lat="21.0644970" lon="105.7852630">
    <ele>11.0</ele>
   </trkpt>
   <trkpt lat="21.0643760" lon="105.7852840">
    <ele>11.0</ele>
   </trkpt>
   <trkpt lat="21.0642900" lon="105.7853100">
    <ele>11.0</ele>
   </trkpt>
   <trkpt lat="21.0641740" lon="105.7853620">
    <ele>11.2</ele>
   </trkpt>
   <trkpt lat="21.0640720" lon="105.7854310">
    <ele>11.0</ele>
   </trkpt>
   <trkpt lat="21.0639690" lon="105.7855040">
    <ele>11.0</ele>
   </trkpt>
   <trkpt lat="21.0638840" lon="105.7855930">
    <ele>11.0</ele>
   </trkpt>
   <trkpt lat="21.0637980" lon="105.7856880">
    <ele>10.8</ele>
   </trkpt>
   <trkpt lat="21.0637390" lon="105.7858010">
    <ele>10.8</ele>
   </trkpt>
   <trkpt lat="21.0636920" lon="105.7859080">
    <ele>10.8</ele>
   </trkpt>
   <trkpt lat="21.0636590" lon="105.7860350">
    <ele>10.8</ele>
   </trkpt>
   <trkpt lat="21.0636290" lon="105.7862250">
    <ele>11.0</ele>
   </trkpt>
   <trkpt lat="21.0636120" lon="105.7863860">
    <ele>11.2</ele>
   </trkpt>
   <trkpt lat="21.0635930" lon="105.7865130">
    <ele>11.4</ele>
   </trkpt>
   <trkpt lat="21.0635790" lon="105.7866150">
    <ele>11.4</ele>
   </trkpt>
   <trkpt lat="21.0635530" lon="105.7867380">
    <ele>11.4</ele>
   </trkpt>
   <trkpt lat="21.0635250" lon="105.7868280">
    <ele>11.4</ele>
   </trkpt>
   <trkpt lat="21.0634720" lon="105.7869530">
    <ele>11.4</ele>
   </trkpt>
   <trkpt lat="21.0634250" lon="105.7870450">
    <ele>11.6</ele>
   </trkpt>
   <trkpt lat="21.0633870" lon="105.7871250">
    <ele>11.6</ele>
   </trkpt>
   <trkpt lat="21.0633180" lon="105.7872380">
    <ele>11.6</ele>
   </trkpt>
   <trkpt lat="21.0632440" lon="105.7873930">
    <ele>11.6</ele>
   </trkpt>
   <trkpt lat="21.0632390" lon="105.7874220">
    <ele>11.6</ele>
   </trkpt>
   <trkpt lat="21.0632290" lon="105.7875270">
    <ele>11.8</ele>
   </trkpt>
   <trkpt lat="21.0632280" lon="105.7876890">
    <ele>11.8</ele>
   </trkpt>
   <trkpt lat="21.0632420" lon="105.7878510">
    <ele>11.8</ele>
   </trkpt>
   <trkpt lat="21.0632740" lon="105.7880150">
    <ele>11.6</ele>
   </trkpt>
   <trkpt lat="21.0633070" lon="105.7881470">
    <ele>11.8</ele>
   </trkpt>
   <trkpt lat="21.0633120" lon="105.7882480">
    <ele>11.8</ele>
   </trkpt>
   <trkpt lat="21.0633280" lon="105.7883770">
    <ele>11.8</ele>
   </trkpt>
   <trkpt lat="21.0633350" lon="105.7884780">
    <ele>11.8</ele>
   </trkpt>
   <trkpt lat="21.0633490" lon="105.7885770">
    <ele>11.8</ele>
   </trkpt>
   <trkpt lat="21.0633550" lon="105.7886770">
    <ele>11.8</ele>
   </trkpt>
   <trkpt lat="21.0633920" lon="105.7887340">
    <ele>11.8</ele>
   </trkpt>
   <trkpt lat="21.0634130" lon="105.7887430">
    <ele>11.8</ele>
   </trkpt>
   <trkpt lat="21.0635110" lon="105.7887460">
    <ele>11.6</ele>
   </trkpt>
   <trkpt lat="21.0635960" lon="105.7887460">
    <ele>11.6</ele>
   </trkpt>
   <trkpt lat="21.0637120" lon="105.7887660">
    <ele>11.6</ele>
   </trkpt>
   <trkpt lat="21.0638330" lon="105.7888160">
    <ele>11.6</ele>
   </trkpt>
   <trkpt lat="21.0639460" lon="105.7888590">
    <ele>11.8</ele>
   </trkpt>
   <trkpt lat="21.0640570" lon="105.7889140">
    <ele>11.6</ele>
   </trkpt>
   <trkpt lat="21.0641980" lon="105.7889840">
    <ele>11.6</ele>
   </trkpt>
   <trkpt lat="21.0643410" lon="105.7890560">
    <ele>11.6</ele>
   </trkpt>
   <trkpt lat="21.0644540" lon="105.7891120">
    <ele>11.6</ele>
   </trkpt>
   <trkpt lat="21.0645720" lon="105.7891350">
    <ele>11.8</ele>
   </trkpt>
   <trkpt lat="21.0647000" lon="105.7891580">
    <ele>11.8</ele>
   </trkpt>
   <trkpt lat="21.0647890" lon="105.7891560">
    <ele>11.6</ele>
   </trkpt>
   <trkpt lat="21.0649150" lon="105.7891250">
    <ele>11.8</ele>
   </trkpt>
   <trkpt lat="21.0650320" lon="105.7890880">
    <ele>11.6</ele>
   </trkpt>
   <trkpt lat="21.0651320" lon="105.7890290">
    <ele>11.6</ele>
   </trkpt>
   <trkpt lat="21.0652390" lon="105.7889530">
    <ele>11.8</ele>
   </trkpt>
   <trkpt lat="21.0653290" lon="105.7888600">
    <ele>11.8</ele>
   </trkpt>
   <trkpt lat="21.0654070" lon="105.7887550">
    <ele>11.8</ele>
   </trkpt>
   <trkpt lat="21.0654580" lon="105.7886660">
    <ele>11.8</ele>
   </trkpt>
   <trkpt lat="21.0655070" lon="105.7885460">
    <ele>11.8</ele>
   </trkpt>
   <trkpt lat="21.0655370" lon="105.7884040">
    <ele>12.0</ele>
   </trkpt>
   <trkpt lat="21.0655450" lon="105.7882700">
    <ele>12.0</ele>
   </trkpt>
   <trkpt lat="21.0655630" lon="105.7881400">
    <ele>11.8</ele>
   </trkpt>
   <trkpt lat="21.0656350" lon="105.7879940">
    <ele>12.0</ele>
   </trkpt>
   <trkpt lat="21.0657100" lon="105.7878770">
    <ele>12.0</ele>
   </trkpt>
   <trkpt lat="21.0657690" lon="105.7878040">
    <ele>12.2</ele>
   </trkpt>
   <trkpt lat="21.0658720" lon="105.7877190">
    <ele>12.0</ele>
   </trkpt>
   <trkpt lat="21.0659470" lon="105.7876590">
    <ele>12.0</ele>
   </trkpt>
   <trkpt lat="21.0660090" lon="105.7875860">
    <ele>12.0</ele>
   </trkpt>
   <trkpt lat="21.0660680" lon="105.7874790">
    <ele>12.2</ele>
   </trkpt>
   <trkpt lat="21.0660890" lon="105.7874140">
    <ele>12.2</ele>
   </trkpt>
   <trkpt lat="21.0661290" lon="105.7873180">
    <ele>12.2</ele>
   </trkpt>
   <trkpt lat="21.0661910" lon="105.7872000">
    <ele>12.2</ele>
   </trkpt>
   <trkpt lat="21.0663020" lon="105.7871360">
    <ele>12.2</ele>
   </trkpt>
   <trkpt lat="21.0664940" lon="105.7870940">
    <ele>12.4</ele>
   </trkpt>
   <trkpt lat="21.0666750" lon="105.7870370">
    <ele>12.4</ele>
   </trkpt>
   <trkpt lat="21.0667080" lon="105.7870270">
    <ele>12.4</ele>
   </trkpt>
   <trkpt lat="21.0668180" lon="105.7869720">
    <ele>12.4</ele>
   </trkpt>
   <trkpt lat="21.0669270" lon="105.7869010">
    <ele>12.4</ele>
   </trkpt>
   <trkpt lat="21.0670330" lon="105.7868220">
    <ele>12.4</ele>
   </trkpt>
   <trkpt lat="21.0671270" lon="105.7867360">
    <ele>12.4</ele>
   </trkpt>
   <trkpt lat="21.0672070" lon="105.7866360">
    <ele>12.2</ele>
   </trkpt>
   <trkpt lat="21.0672700" lon="105.7865290">
    <ele>12.4</ele>
   </trkpt>
   <trkpt lat="21.0672970" lon="105.7864080">
    <ele>12.4</ele>
   </trkpt>
   <trkpt lat="21.0672340" lon="105.7862660">
    <ele>12.4</ele>
   </trkpt>
   <trkpt lat="21.0671740" lon="105.7861310">
    <ele>12.4</ele>
   </trkpt>
   <trkpt lat="21.0671240" lon="105.7860150">
    <ele>12.4</ele>
   </trkpt>
   <trkpt lat="21.0670670" lon="105.7858880">
    <ele>12.4</ele>
   </trkpt>
   <trkpt lat="21.0669980" lon="105.7857720">
    <ele>12.2</ele>
   </trkpt>
   <trkpt lat="21.0669110" lon="105.7857270">
    <ele>12.2</ele>
   </trkpt>
   <trkpt lat="21.0668230" lon="105.7857100">
    <ele>12.0</ele>
   </trkpt>
   <trkpt lat="21.0667280" lon="105.7856800">
    <ele>12.0</ele>
   </trkpt>
   <trkpt lat="21.0666370" lon="105.7856720">
    <ele>11.8</ele>
   </trkpt>
   <trkpt lat="21.0665120" lon="105.7856670">
    <ele>11.8</ele>
   </trkpt>
   <trkpt lat="21.0663870" lon="105.7856860">
    <ele>11.8</ele>
   </trkpt>
   <trkpt lat="21.0662740" lon="105.7857290">
    <ele>11.8</ele>
   </trkpt>
   <trkpt lat="21.0661670" lon="105.7857910">
    <ele>11.8</ele>
   </trkpt>
   <trkpt lat="21.0660420" lon="105.7859030">
    <ele>11.8</ele>
   </trkpt>
   <trkpt lat="21.0659520" lon="105.7859850">
    <ele>11.8</ele>
   </trkpt>
   <trkpt lat="21.0658510" lon="105.7860600">
    <ele>11.8</ele>
   </trkpt>
   <trkpt lat="21.0657380" lon="105.7860940">
    <ele>11.6</ele>
   </trkpt>
   <trkpt lat="21.0656020" lon="105.7860490">
    <ele>11.6</ele>
   </trkpt>
   <trkpt lat="21.0655030" lon="105.7859530">
    <ele>11.6</ele>
   </trkpt>
   <trkpt lat="21.0654230" lon="105.7858340">
    <ele>11.6</ele>
   </trkpt>
   <trkpt lat="21.0653690" lon="105.7857590">
    <ele>11.6</ele>
   </trkpt>
   <trkpt lat="21.0653510" lon="105.7857290">
    <ele>11.6</ele>
   </trkpt>
   <trkpt lat="21.0652770" lon="105.7856190">
    <ele>11.8</ele>
   </trkpt>
   <trkpt lat="21.0652100" lon="105.7855530">
    <ele>11.6</ele>
   </trkpt>
   <trkpt lat="21.0651400" lon="105.7854880">
    <ele>11.6</ele>
   </trkpt>
   <trkpt lat="21.0650660" lon="105.7854380">
    <ele>11.6</ele>
   </trkpt>
   <trkpt lat="21.0649880" lon="105.7853790">
    <ele>11.6</ele>
   </trkpt>
   <trkpt lat="21.0649110" lon="105.7853420">
    <ele>11.4</ele>
   </trkpt>
   <trkpt lat="21.0648230" lon="105.7852950">
    <ele>11.6</ele>
   </trkpt>
   <trkpt lat="21.0647380" lon="105.7852820">
    <ele>11.6</ele>
   </trkpt>
   <trkpt lat="21.0646460" lon="105.7852670">
    <ele>11.6</ele>
   </trkpt>
   <trkpt lat="21.0645210" lon="105.7852790">
    <ele>11.6</ele>
   </trkpt>
   <trkpt lat="21.0644000" lon="105.7852940">
    <ele>11.6</ele>
   </trkpt>
   <trkpt lat="21.0642800" lon="105.7853180">
    <ele>11.6</ele>
   </trkpt>
   <trkpt lat="21.0641620" lon="105.7853580">
    <ele>11.6</ele>
   </trkpt>
   <trkpt lat="21.0640540" lon="105.7854130">
    <ele>11.4</ele>
   </trkpt>
   <trkpt lat="21.0639540" lon="105.7854980">
    <ele>11.4</ele>
   </trkpt>
   <trkpt lat="21.0638700" lon="105.7855970">
    <ele>11.4</ele>
   </trkpt>
   <trkpt lat="21.0637870" lon="105.7856960">
    <ele>11.4</ele>
   </trkpt>
   <trkpt lat="21.0637350" lon="105.7858130">
    <ele>11.4</ele>
   </trkpt>
   <trkpt lat="21.0636920" lon="105.7859290">
    <ele>11.4</ele>
   </trkpt>
   <trkpt lat="21.0636610" lon="105.7860610">
    <ele>11.4</ele>
   </trkpt>
   <trkpt lat="21.0636550" lon="105.7861910">
    <ele>11.4</ele>
   </trkpt>
   <trkpt lat="21.0636480" lon="105.7862880">
    <ele>11.4</ele>
   </trkpt>
   <trkpt lat="21.0636400" lon="105.7864230">
    <ele>11.6</ele>
   </trkpt>
   <trkpt lat="21.0636240" lon="105.7865520">
    <ele>11.6</ele>
   </trkpt>
   <trkpt lat="21.0636000" lon="105.7866770">
    <ele>11.6</ele>
   </trkpt>
   <trkpt lat="21.0635420" lon="105.7868280">
    <ele>11.6</ele>
   </trkpt>
   <trkpt lat="21.0634730" lon="105.7869370">
    <ele>11.6</ele>
   </trkpt>
   <trkpt lat="21.0634350" lon="105.7869890">
    <ele>11.6</ele>
   </trkpt>
   <trkpt lat="21.0633980" lon="105.7870440">
    <ele>11.6</ele>
   </trkpt>
   <trkpt lat="21.0633400" lon="105.7871300">
    <ele>11.6</ele>
   </trkpt>
   <trkpt lat="21.0633020" lon="105.7872160">
    <ele>11.6</ele>
   </trkpt>
   <trkpt lat="21.0632700" lon="105.7873120">
    <ele>11.6</ele>
   </trkpt>
   <trkpt lat="21.0632380" lon="105.7874320">
    <ele>11.6</ele>
   </trkpt>
   <trkpt lat="21.0632260" lon="105.7875510">
    <ele>11.8</ele>
   </trkpt>
   <trkpt lat="21.0632260" lon="105.7876540">
    <ele>11.6</ele>
   </trkpt>
   <trkpt lat="21.0632410" lon="105.7877490">
    <ele>11.6</ele>
   </trkpt>
   <trkpt lat="21.0632520" lon="105.7878540">
    <ele>11.6</ele>
   </trkpt>
   <trkpt lat="21.0632720" lon="105.7879460">
    <ele>11.6</ele>
   </trkpt>
   <trkpt lat="21.0632930" lon="105.7880720">
    <ele>11.6</ele>
   </trkpt>
   <trkpt lat="21.0633190" lon="105.7881910">
    <ele>11.6</ele>
   </trkpt>
   <trkpt lat="21.0633230" lon="105.7883310">
    <ele>11.6</ele>
   </trkpt>
   <trkpt lat="21.0633360" lon="105.7884260">
    <ele>11.6</ele>
   </trkpt>
   <trkpt lat="21.0633500" lon="105.7885250">
    <ele>11.4</ele>
   </trkpt>
   <trkpt lat="21.0633670" lon="105.7886630">
    <ele>11.4</ele>
   </trkpt>
   <trkpt lat="21.0633940" lon="105.7887090">
    <ele>11.4</ele>
   </trkpt>
   <trkpt lat="21.0633890" lon="105.7887070">
    <ele>10.6</ele>
   </trkpt>
   <trkpt lat="21.0633890" lon="105.7887070">
    <ele>10.2</ele>
   </trkpt>
   <trkpt lat="21.0634550" lon="105.7887110">
    <ele>10.4</ele>
   </trkpt>
   <trkpt lat="21.0635570" lon="105.7887220">
    <ele>11.0</ele>
   </trkpt>
   <trkpt lat="21.0636670" lon="105.7887540">
    <ele>11.0</ele>
   </trkpt>
   <trkpt lat="21.0637720" lon="105.7887960">
    <ele>11.0</ele>
   </trkpt>
   <trkpt lat="21.0639240" lon="105.7888650">
    <ele>11.0</ele>
   </trkpt>
   <trkpt lat="21.0639980" lon="105.7888890">
    <ele>11.0</ele>
   </trkpt>
   <trkpt lat="21.0640230" lon="105.7889030">
    <ele>11.0</ele>
   </trkpt>
   <trkpt lat="21.0642000" lon="105.7889920">
    <ele>11.0</ele>
   </trkpt>
   <trkpt lat="21.0643070" lon="105.7890460">
    <ele>11.2</ele>
   </trkpt>
   <trkpt lat="21.0644130" lon="105.7890710">
    <ele>11.2</ele>
   </trkpt>
   <trkpt lat="21.0645490" lon="105.7891100">
    <ele>11.2</ele>
   </trkpt>
   <trkpt lat="21.0647240" lon="105.7891460">
    <ele>11.0</ele>
   </trkpt>
   <trkpt lat="21.0648050" lon="105.7891300">
    <ele>11.0</ele>
   </trkpt>
   <trkpt lat="21.0649190" lon="105.7891170">
    <ele>11.0</ele>
   </trkpt>
   <trkpt lat="21.0650300" lon="105.7890940">
    <ele>10.8</ele>
   </trkpt>
   <trkpt lat="21.0651380" lon="105.7890500">
    <ele>10.8</ele>
   </trkpt>
   <trkpt lat="21.0652200" lon="105.7889860">
    <ele>11.0</ele>
   </trkpt>
   <trkpt lat="21.0653190" lon="105.7889060">
    <ele>11.0</ele>
   </trkpt>
   <trkpt lat="21.0653770" lon="105.7888180">
    <ele>10.8</ele>
   </trkpt>
   <trkpt lat="21.0654400" lon="105.7887240">
    <ele>10.8</ele>
   </trkpt>
   <trkpt lat="21.0654980" lon="105.7886400">
    <ele>11.0</ele>
   </trkpt>
   <trkpt lat="21.0655070" lon="105.7886220">
    <ele>11.0</ele>
   </trkpt>
   <trkpt lat="21.0655200" lon="105.7886130">
    <ele>11.0</ele>
   </trkpt>
   <trkpt lat="21.0655290" lon="105.7886170">
    <ele>10.8</ele>
   </trkpt>
   <trkpt lat="21.0655230" lon="105.7885800">
    <ele>10.0</ele>
   </trkpt>
   <trkpt lat="21.0655360" lon="105.7884660">
    <ele>10.6</ele>
   </trkpt>
   <trkpt lat="21.0655460" lon="105.7883540">
    <ele>10.8</ele>
   </trkpt>
   <trkpt lat="21.0655540" lon="105.7882240">
    <ele>10.8</ele>
   </trkpt>
   <trkpt lat="21.0655830" lon="105.7881020">
    <ele>10.8</ele>
   </trkpt>
   <trkpt lat="21.0656260" lon="105.7880020">
    <ele>11.0</ele>
   </trkpt>
   <trkpt lat="21.0656870" lon="105.7879090">
    <ele>11.0</ele>
   </trkpt>
   <trkpt lat="21.0657660" lon="105.7878050">
    <ele>11.2</ele>
   </trkpt>
   <trkpt lat="21.0658270" lon="105.7877440">
    <ele>11.2</ele>
   </trkpt>
   <trkpt lat="21.0659230" lon="105.7876650">
    <ele>11.0</ele>
   </trkpt>
   <trkpt lat="21.0660050" lon="105.7875940">
    <ele>11.2</ele>
   </trkpt>
   <trkpt lat="21.0660730" lon="105.7874920">
    <ele>11.2</ele>
   </trkpt>
   <trkpt lat="21.0661090" lon="105.7873950">
    <ele>11.2</ele>
   </trkpt>
   <trkpt lat="21.0661730" lon="105.7872720">
    <ele>11.2</ele>
   </trkpt>
   <trkpt lat="21.0662410" lon="105.7872180">
    <ele>11.4</ele>
   </trkpt>
   <trkpt lat="21.0663370" lon="105.7871560">
    <ele>11.4</ele>
   </trkpt>
   <trkpt lat="21.0664380" lon="105.7871120">
    <ele>11.4</ele>
   </trkpt>
   <trkpt lat="21.0665340" lon="105.7870770">
    <ele>11.6</ele>
   </trkpt>
   <trkpt lat="21.0665600" lon="105.7870630">
    <ele>11.6</ele>
   </trkpt>
   <trkpt lat="21.0665850" lon="105.7870300">
    <ele>11.6</ele>
   </trkpt>
   <trkpt lat="21.0665900" lon="105.7870330">
    <ele>11.4</ele>
   </trkpt>
   <trkpt lat="21.0665860" lon="105.7870350">
    <ele>11.2</ele>
   </trkpt>
   <trkpt lat="21.0665820" lon="105.7870390">
    <ele>11.2</ele>
   </trkpt>
   <trkpt lat="21.0665820" lon="105.7870410">
    <ele>11.2</ele>
   </trkpt>
   <trkpt lat="21.0665740" lon="105.7870530">
    <ele>11.4</ele>
   </trkpt>
   <trkpt lat="21.0665950" lon="105.7870550">
    <ele>11.4</ele>
   </trkpt>
   <trkpt lat="21.0666200" lon="105.7870520">
    <ele>11.4</ele>
   </trkpt>
   <trkpt lat="21.0666900" lon="105.7870160">
    <ele>11.4</ele>
   </trkpt>
   <trkpt lat="21.0667900" lon="105.7869800">
    <ele>11.4</ele>
   </trkpt>
   <trkpt lat="21.0669060" lon="105.7869140">
    <ele>11.4</ele>
   </trkpt>
   <trkpt lat="21.0669690" lon="105.7868630">
    <ele>11.4</ele>
   </trkpt>
   <trkpt lat="21.0669850" lon="105.7868470">
    <ele>11.4</ele>
   </trkpt>
   <trkpt lat="21.0670620" lon="105.7867850">
    <ele>11.4</ele>
   </trkpt>
   <trkpt lat="21.0671530" lon="105.7866930">
    <ele>11.4</ele>
   </trkpt>
   <trkpt lat="21.0672330" lon="105.7866130">
    <ele>11.4</ele>
   </trkpt>
   <trkpt lat="21.0672970" lon="105.7865290">
    <ele>11.4</ele>
   </trkpt>
   <trkpt lat="21.0673130" lon="105.7864470">
    <ele>11.4</ele>
   </trkpt>
   <trkpt lat="21.0672990" lon="105.7863900">
    <ele>11.4</ele>
   </trkpt>
   <trkpt lat="21.0672510" lon="105.7862870">
    <ele>11.4</ele>
   </trkpt>
   <trkpt lat="21.0671950" lon="105.7861920">
    <ele>11.4</ele>
   </trkpt>
   <trkpt lat="21.0671500" lon="105.7860880">
    <ele>11.6</ele>
   </trkpt>
   <trkpt lat="21.0670900" lon="105.7859650">
    <ele>11.6</ele>
   </trkpt>
   <trkpt lat="21.0670360" lon="105.7858720">
    <ele>11.6</ele>
   </trkpt>
   <trkpt lat="21.0670000" lon="105.7858130">
    <ele>11.4</ele>
   </trkpt>
   <trkpt lat="21.0669940" lon="105.7858280">
    <ele>11.4</ele>
   </trkpt>
   <trkpt lat="21.0670240" lon="105.7858720">
    <ele>11.6</ele>
   </trkpt>
   <trkpt lat="21.0670800" lon="105.7859660">
    <ele>11.8</ele>
   </trkpt>
   <trkpt lat="21.0671370" lon="105.7860900">
    <ele>12.0</ele>
   </trkpt>
   <trkpt lat="21.0671920" lon="105.7861880">
    <ele>12.0</ele>
   </trkpt>
   <trkpt lat="21.0672400" lon="105.7862480">
    <ele>12.0</ele>
   </trkpt>
   <trkpt lat="21.0672890" lon="105.7863410">
    <ele>12.0</ele>
   </trkpt>
   <trkpt lat="21.0673240" lon="105.7864520">
    <ele>11.8</ele>
   </trkpt>
   <trkpt lat="21.0672780" lon="105.7865660">
    <ele>11.8</ele>
   </trkpt>
   <trkpt lat="21.0671990" lon="105.7866470">
    <ele>11.8</ele>
   </trkpt>
   <trkpt lat="21.0671080" lon="105.7867510">
    <ele>11.8</ele>
   </trkpt>
   <trkpt lat="21.0670450" lon="105.7868070">
    <ele>11.8</ele>
   </trkpt>
   <trkpt lat="21.0669580" lon="105.7868750">
    <ele>11.8</ele>
   </trkpt>
   <trkpt lat="21.0668680" lon="105.7869390">
    <ele>11.8</ele>
   </trkpt>
   <trkpt lat="21.0667800" lon="105.7869890">
    <ele>11.8</ele>
   </trkpt>
   <trkpt lat="21.0666780" lon="105.7870370">
    <ele>11.8</ele>
   </trkpt>
   <trkpt lat="21.0665770" lon="105.7870750">
    <ele>11.8</ele>
   </trkpt>
   <trkpt lat="21.0664650" lon="105.7871030">
    <ele>11.8</ele>
   </trkpt>
   <trkpt lat="21.0663670" lon="105.7871270">
    <ele>11.8</ele>
   </trkpt>
   <trkpt lat="21.0662250" lon="105.7871950">
    <ele>11.6</ele>
   </trkpt>
   <trkpt lat="21.0661080" lon="105.7873070">
    <ele>11.6</ele>
   </trkpt>
   <trkpt lat="21.0660380" lon="105.7874610">
    <ele>11.6</ele>
   </trkpt>
   <trkpt lat="21.0659820" lon="105.7875590">
    <ele>11.6</ele>
   </trkpt>
   <trkpt lat="21.0659070" lon="105.7876330">
    <ele>11.4</ele>
   </trkpt>
   <trkpt lat="21.0658250" lon="105.7877040">
    <ele>11.4</ele>
   </trkpt>
   <trkpt lat="21.0657440" lon="105.7877710">
    <ele>11.4</ele>
   </trkpt>
   <trkpt lat="21.0656710" lon="105.7878490">
    <ele>11.4</ele>
   </trkpt>
   <trkpt lat="21.0656200" lon="105.7879190">
    <ele>11.4</ele>
   </trkpt>
   <trkpt lat="21.0656140" lon="105.7879430">
    <ele>11.2</ele>
   </trkpt>
   <trkpt lat="21.0655700" lon="105.7880510">
    <ele>11.2</ele>
   </trkpt>
   <trkpt lat="21.0655550" lon="105.7881570">
    <ele>11.2</ele>
   </trkpt>
   <trkpt lat="21.0655460" lon="105.7882680">
    <ele>11.4</ele>
   </trkpt>
   <trkpt lat="21.0655360" lon="105.7883800">
    <ele>11.2</ele>
   </trkpt>
   <trkpt lat="21.0655210" lon="105.7884900">
    <ele>11.2</ele>
   </trkpt>
   <trkpt lat="21.0654820" lon="105.7886300">
    <ele>11.0</ele>
   </trkpt>
   <trkpt lat="21.0654040" lon="105.7887790">
    <ele>11.0</ele>
   </trkpt>
   <trkpt lat="21.0653150" lon="105.7888960">
    <ele>10.8</ele>
   </trkpt>
   <trkpt lat="21.0652090" lon="105.7889880">
    <ele>10.8</ele>
   </trkpt>
   <trkpt lat="21.0650850" lon="105.7890500">
    <ele>10.6</ele>
   </trkpt>
   <trkpt lat="21.0649840" lon="105.7890840">
    <ele>10.8</ele>
   </trkpt>
   <trkpt lat="21.0648780" lon="105.7891230">
    <ele>11.0</ele>
   </trkpt>
   <trkpt lat="21.0647720" lon="105.7891300">
    <ele>11.0</ele>
   </trkpt>
   <trkpt lat="21.0646590" lon="105.7891290">
    <ele>11.2</ele>
   </trkpt>
   <trkpt lat="21.0645530" lon="105.7891080">
    <ele>11.2</ele>
   </trkpt>
   <trkpt lat="21.0644490" lon="105.7890690">
    <ele>11.0</ele>
   </trkpt>
   <trkpt lat="21.0643520" lon="105.7890180">
    <ele>10.8</ele>
   </trkpt>
   <trkpt lat="21.0642760" lon="105.7889980">
    <ele>10.8</ele>
   </trkpt>
   <trkpt lat="21.0641990" lon="105.7889560">
    <ele>11.0</ele>
   </trkpt>
   <trkpt lat="21.0641090" lon="105.7888980">
    <ele>11.0</ele>
   </trkpt>
   <trkpt lat="21.0640180" lon="105.7888370">
    <ele>11.2</ele>
   </trkpt>
   <trkpt lat="21.0638770" lon="105.7887640">
    <ele>11.2</ele>
   </trkpt>
   <trkpt lat="21.0637820" lon="105.7887220">
    <ele>11.2</ele>
   </trkpt>
   <trkpt lat="21.0636860" lon="105.7886840">
    <ele>11.2</ele>
   </trkpt>
   <trkpt lat="21.0635800" lon="105.7886540">
    <ele>11.2</ele>
   </trkpt>
   <trkpt lat="21.0634940" lon="105.7886480">
    <ele>11.2</ele>
   </trkpt>
   <trkpt lat="21.0634420" lon="105.7886400">
    <ele>11.2</ele>
   </trkpt>
   <trkpt lat="21.0634170" lon="105.7886340">
    <ele>11.2</ele>
   </trkpt>
   <trkpt lat="21.0634000" lon="105.7886090">
    <ele>11.2</ele>
   </trkpt>
   <trkpt lat="21.0633750" lon="105.7885580">
    <ele>11.4</ele>
   </trkpt>
   <trkpt lat="21.0633630" lon="105.7884460">
    <ele>11.6</ele>
   </trkpt>
   <trkpt lat="21.0633470" lon="105.7883110">
    <ele>11.4</ele>
   </trkpt>
   <trkpt lat="21.0633180" lon="105.7882020">
    <ele>11.4</ele>
   </trkpt>
   <trkpt lat="21.0632890" lon="105.7880630">
    <ele>11.6</ele>
   </trkpt>
   <trkpt lat="21.0632570" lon="105.7879530">
    <ele>11.4</ele>
   </trkpt>
   <trkpt lat="21.0632400" lon="105.7878420">
    <ele>11.4</ele>
   </trkpt>
   <trkpt lat="21.0632230" lon="105.7877370">
    <ele>11.6</ele>
   </trkpt>
   <trkpt lat="21.0632210" lon="105.7875930">
    <ele>11.4</ele>
   </trkpt>
   <trkpt lat="21.0632490" lon="105.7874230">
    <ele>11.4</ele>
   </trkpt>
   <trkpt lat="21.0633030" lon="105.7872910">
    <ele>11.4</ele>
   </trkpt>
   <trkpt lat="21.0633510" lon="105.7871940">
    <ele>11.4</ele>
   </trkpt>
   <trkpt lat="21.0634180" lon="105.7870740">
    <ele>11.4</ele>
   </trkpt>
   <trkpt lat="21.0634750" lon="105.7869810">
    <ele>11.4</ele>
   </trkpt>
   <trkpt lat="21.0635270" lon="105.7868820">
    <ele>11.4</ele>
   </trkpt>
   <trkpt lat="21.0635800" lon="105.7867890">
    <ele>11.4</ele>
   </trkpt>
   <trkpt lat="21.0636020" lon="105.7866800">
    <ele>11.4</ele>
   </trkpt>
   <trkpt lat="21.0636130" lon="105.7865710">
    <ele>11.4</ele>
   </trkpt>
   <trkpt lat="21.0636220" lon="105.7864350">
    <ele>11.4</ele>
   </trkpt>
   <trkpt lat="21.0636210" lon="105.7863370">
    <ele>11.4</ele>
   </trkpt>
   <trkpt lat="21.0636420" lon="105.7862210">
    <ele>11.2</ele>
   </trkpt>
   <trkpt lat="21.0636540" lon="105.7861050">
    <ele>11.2</ele>
   </trkpt>
   <trkpt lat="21.0636730" lon="105.7859980">
    <ele>11.0</ele>
   </trkpt>
   <trkpt lat="21.0637000" lon="105.7858870">
    <ele>11.0</ele>
   </trkpt>
   <trkpt lat="21.0637360" lon="105.7857900">
    <ele>11.2</ele>
   </trkpt>
   <trkpt lat="21.0637780" lon="105.7856950">
    <ele>11.2</ele>
   </trkpt>
   <trkpt lat="21.0638450" lon="105.7856060">
    <ele>11.2</ele>
   </trkpt>
   <trkpt lat="21.0639320" lon="105.7855230">
    <ele>11.2</ele>
   </trkpt>
   <trkpt lat="21.0640190" lon="105.7854500">
    <ele>11.4</ele>
   </trkpt>
   <trkpt lat="21.0641060" lon="105.7853760">
    <ele>11.4</ele>
   </trkpt>
   <trkpt lat="21.0641960" lon="105.7853230">
    <ele>11.2</ele>
   </trkpt>
   <trkpt lat="21.0643010" lon="105.7853010">
    <ele>11.2</ele>
   </trkpt>
   <trkpt lat="21.0644020" lon="105.7852940">
    <ele>11.4</ele>
   </trkpt>
   <trkpt lat="21.0645340" lon="105.7852880">
    <ele>11.4</ele>
   </trkpt>
   <trkpt lat="21.0646390" lon="105.7852880">
    <ele>11.4</ele>
   </trkpt>
   <trkpt lat="21.0647390" lon="105.7852830">
    <ele>11.4</ele>
   </trkpt>
   <trkpt lat="21.0648150" lon="105.7852940">
    <ele>11.4</ele>
   </trkpt>
   <trkpt lat="21.0649230" lon="105.7853360">
    <ele>11.6</ele>
   </trkpt>
   <trkpt lat="21.0650200" lon="105.7853790">
    <ele>11.6</ele>
   </trkpt>
   <trkpt lat="21.0651020" lon="105.7854550">
    <ele>11.6</ele>
   </trkpt>
   <trkpt lat="21.0651970" lon="105.7855490">
    <ele>11.6</ele>
   </trkpt>
   <trkpt lat="21.0652730" lon="105.7856630">
    <ele>11.6</ele>
   </trkpt>
   <trkpt lat="21.0653450" lon="105.7857420">
    <ele>11.6</ele>
   </trkpt>
   <trkpt lat="21.0654040" lon="105.7858330">
    <ele>11.6</ele>
   </trkpt>
   <trkpt lat="21.0654660" lon="105.7859300">
    <ele>11.6</ele>
   </trkpt>
   <trkpt lat="21.0655330" lon="105.7860230">
    <ele>11.6</ele>
   </trkpt>
   <trkpt lat="21.0656180" lon="105.7860860">
    <ele>11.6</ele>
   </trkpt>
   <trkpt lat="21.0657360" lon="105.7861230">
    <ele>11.6</ele>
   </trkpt>
   <trkpt lat="21.0658500" lon="105.7860970">
    <ele>11.4</ele>
   </trkpt>
   <trkpt lat="21.0659350" lon="105.7860280">
    <ele>11.6</ele>
   </trkpt>
   <trkpt lat="21.0660210" lon="105.7859560">
    <ele>11.6</ele>
   </trkpt>
   <trkpt lat="21.0660980" lon="105.7858800">
    <ele>11.4</ele>
   </trkpt>
   <trkpt lat="21.0661780" lon="105.7858030">
    <ele>11.4</ele>
   </trkpt>
   <trkpt lat="21.0662590" lon="105.7857450">
    <ele>11.4</ele>
   </trkpt>
   <trkpt lat="21.0663530" lon="105.7857050">
    <ele>11.4</ele>
   </trkpt>
   <trkpt lat="21.0665210" lon="105.7856780">
    <ele>11.4</ele>
   </trkpt>
   <trkpt lat="21.0666180" lon="105.7856830">
    <ele>11.4</ele>
   </trkpt>
   <trkpt lat="21.0667250" lon="105.7856960">
    <ele>11.4</ele>
   </trkpt>
   <trkpt lat="21.0668510" lon="105.7857330">
    <ele>11.4</ele>
   </trkpt>
   <trkpt lat="21.0669500" lon="105.7857660">
    <ele>11.6</ele>
   </trkpt>
   <trkpt lat="21.0669870" lon="105.7858090">
    <ele>11.6</ele>
   </trkpt>
   <trkpt lat="21.0670180" lon="105.7858610">
    <ele>11.6</ele>
   </trkpt>
   <trkpt lat="21.0670720" lon="105.7859520">
    <ele>12.0</ele>
   </trkpt>
   <trkpt lat="21.0671260" lon="105.7860500">
    <ele>12.0</ele>
   </trkpt>
   <trkpt lat="21.0671790" lon="105.7861500">
    <ele>12.0</ele>
   </trkpt>
   <trkpt lat="21.0672330" lon="105.7862510">
    <ele>12.0</ele>
   </trkpt>
   <trkpt lat="21.0672770" lon="105.7863470">
    <ele>12.0</ele>
   </trkpt>
   <trkpt lat="21.0673280" lon="105.7864720">
    <ele>12.0</ele>
   </trkpt>
   <trkpt lat="21.0672740" lon="105.7865730">
    <ele>12.0</ele>
   </trkpt>
   <trkpt lat="21.0671750" lon="105.7866800">
    <ele>12.0</ele>
   </trkpt>
   <trkpt lat="21.0670750" lon="105.7867670">
    <ele>12.0</ele>
   </trkpt>
   <trkpt lat="21.0669900" lon="105.7868420">
    <ele>12.0</ele>
   </trkpt>
   <trkpt lat="21.0668980" lon="105.7869120">
    <ele>12.0</ele>
   </trkpt>
   <trkpt lat="21.0668100" lon="105.7869640">
    <ele>12.0</ele>
   </trkpt>
   <trkpt lat="21.0667180" lon="105.7870160">
    <ele>12.0</ele>
   </trkpt>
   <trkpt lat="21.0666570" lon="105.7870610">
    <ele>11.8</ele>
   </trkpt>
   <trkpt lat="21.0665630" lon="105.7870940">
    <ele>11.8</ele>
   </trkpt>
   <trkpt lat="21.0664660" lon="105.7871130">
    <ele>11.8</ele>
   </trkpt>
   <trkpt lat="21.0663340" lon="105.7871460">
    <ele>11.6</ele>
   </trkpt>
   <trkpt lat="21.0662110" lon="105.7872060">
    <ele>11.8</ele>
   </trkpt>
   <trkpt lat="21.0661350" lon="105.7872730">
    <ele>11.8</ele>
   </trkpt>
   <trkpt lat="21.0660720" lon="105.7873550">
    <ele>11.8</ele>
   </trkpt>
   <trkpt lat="21.0660580" lon="105.7874230">
    <ele>11.6</ele>
   </trkpt>
   <trkpt lat="21.0660170" lon="105.7875060">
    <ele>11.6</ele>
   </trkpt>
   <trkpt lat="21.0659790" lon="105.7875800">
    <ele>11.6</ele>
   </trkpt>
   <trkpt lat="21.0658950" lon="105.7876530">
    <ele>11.4</ele>
   </trkpt>
   <trkpt lat="21.0657910" lon="105.7877290">
    <ele>11.4</ele>
   </trkpt>
   <trkpt lat="21.0656970" lon="105.7878220">
    <ele>11.4</ele>
   </trkpt>
   <trkpt lat="21.0656350" lon="105.7879040">
    <ele>11.4</ele>
   </trkpt>
   <trkpt lat="21.0656070" lon="105.7879730">
    <ele>11.4</ele>
   </trkpt>
   <trkpt lat="21.0655740" lon="105.7880580">
    <ele>11.4</ele>
   </trkpt>
   <trkpt lat="21.0655620" lon="105.7881370">
    <ele>11.4</ele>
   </trkpt>
   <trkpt lat="21.0655470" lon="105.7882160">
    <ele>11.6</ele>
   </trkpt>
   <trkpt lat="21.0655480" lon="105.7882910">
    <ele>11.4</ele>
   </trkpt>
   <trkpt lat="21.0655360" lon="105.7883770">
    <ele>11.2</ele>
   </trkpt>
   <trkpt lat="21.0655220" lon="105.7884840">
    <ele>11.2</ele>
   </trkpt>
   <trkpt lat="21.0655070" lon="105.7885570">
    <ele>11.2</ele>
   </trkpt>
   <trkpt lat="21.0654740" lon="105.7886400">
    <ele>11.2</ele>
   </trkpt>
   <trkpt lat="21.0654300" lon="105.7887420">
    <ele>11.2</ele>
   </trkpt>
   <trkpt lat="21.0653710" lon="105.7888350">
    <ele>11.0</ele>
   </trkpt>
   <trkpt lat="21.0653040" lon="105.7889170">
    <ele>10.8</ele>
   </trkpt>
   <trkpt lat="21.0651880" lon="105.7890230">
    <ele>10.8</ele>
   </trkpt>
   <trkpt lat="21.0650680" lon="105.7890750">
    <ele>10.8</ele>
   </trkpt>
   <trkpt lat="21.0649420" lon="105.7891100">
    <ele>11.0</ele>
   </trkpt>
   <trkpt lat="21.0648420" lon="105.7891260">
    <ele>11.0</ele>
   </trkpt>
   <trkpt lat="21.0647380" lon="105.7891340">
    <ele>10.8</ele>
   </trkpt>
   <trkpt lat="21.0646420" lon="105.7891250">
    <ele>10.8</ele>
   </trkpt>
   <trkpt lat="21.0645380" lon="105.7891180">
    <ele>10.8</ele>
   </trkpt>
   <trkpt lat="21.0644610" lon="105.7890910">
    <ele>10.6</ele>
   </trkpt>
   <trkpt lat="21.0644400" lon="105.7890820">
    <ele>10.6</ele>
   </trkpt>
   <trkpt lat="21.0643930" lon="105.7890610">
    <ele>10.6</ele>
   </trkpt>
   <trkpt lat="21.0643480" lon="105.7890350">
    <ele>10.6</ele>
   </trkpt>
   <trkpt lat="21.0642570" lon="105.7890010">
    <ele>10.8</ele>
   </trkpt>
   <trkpt lat="21.0641760" lon="105.7889890">
    <ele>10.8</ele>
   </trkpt>
   <trkpt lat="21.0642080" lon="105.7890120">
    <ele>10.8</ele>
   </trkpt>
   <trkpt lat="21.0642600" lon="105.7890250">
    <ele>10.8</ele>
   </trkpt>
   <trkpt lat="21.0643850" lon="105.7890820">
    <ele>11.0</ele>
   </trkpt>
   <trkpt lat="21.0644800" lon="105.7891280">
    <ele>11.0</ele>
   </trkpt>
   <trkpt lat="21.0645820" lon="105.7891490">
    <ele>10.8</ele>
   </trkpt>
   <trkpt lat="21.0646880" lon="105.7891530">
    <ele>10.8</ele>
   </trkpt>
   <trkpt lat="21.0648010" lon="105.7891570">
    <ele>10.8</ele>
   </trkpt>
   <trkpt lat="21.0649260" lon="105.7891390">
    <ele>10.8</ele>
   </trkpt>
   <trkpt lat="21.0650240" lon="105.7891100">
    <ele>11.0</ele>
   </trkpt>
   <trkpt lat="21.0651160" lon="105.7890540">
    <ele>10.8</ele>
   </trkpt>
   <trkpt lat="21.0651980" lon="105.7889800">
    <ele>10.8</ele>
   </trkpt>
   <trkpt lat="21.0652800" lon="105.7889070">
    <ele>10.8</ele>
   </trkpt>
   <trkpt lat="21.0653500" lon="105.7888210">
    <ele>10.8</ele>
   </trkpt>
   <trkpt lat="21.0654030" lon="105.7887510">
    <ele>10.8</ele>
   </trkpt>
   <trkpt lat="21.0654330" lon="105.7886910">
    <ele>10.8</ele>
   </trkpt>
   <trkpt lat="21.0654700" lon="105.7886200">
    <ele>10.8</ele>
   </trkpt>
   <trkpt lat="21.0655220" lon="105.7885040">
    <ele>10.8</ele>
   </trkpt>
   <trkpt lat="21.0655510" lon="105.7884010">
    <ele>10.8</ele>
   </trkpt>
   <trkpt lat="21.0655640" lon="105.7882870">
    <ele>10.8</ele>
   </trkpt>
   <trkpt lat="21.0655740" lon="105.7881810">
    <ele>11.0</ele>
   </trkpt>
   <trkpt lat="21.0656090" lon="105.7880850">
    <ele>11.0</ele>
   </trkpt>
   <trkpt lat="21.0656770" lon="105.7879700">
    <ele>11.2</ele>
   </trkpt>
   <trkpt lat="21.0657350" lon="105.7878790">
    <ele>11.2</ele>
   </trkpt>
   <trkpt lat="21.0657980" lon="105.7877950">
    <ele>11.4</ele>
   </trkpt>
   <trkpt lat="21.0658630" lon="105.7877280">
    <ele>11.4</ele>
   </trkpt>
   <trkpt lat="21.0659410" lon="105.7876540">
    <ele>11.4</ele>
   </trkpt>
   <trkpt lat="21.0660390" lon="105.7875590">
    <ele>11.4</ele>
   </trkpt>
   <trkpt lat="21.0660890" lon="105.7874540">
    <ele>11.4</ele>
   </trkpt>
   <trkpt lat="21.0661300" lon="105.7873480">
    <ele>11.6</ele>
   </trkpt>
   <trkpt lat="21.0661690" lon="105.7872720">
    <ele>11.6</ele>
   </trkpt>
   <trkpt lat="21.0661910" lon="105.7872440">
    <ele>11.6</ele>
   </trkpt>
   <trkpt lat="21.0662100" lon="105.7872230">
    <ele>11.6</ele>
   </trkpt>
   <trkpt lat="21.0662340" lon="105.7872060">
    <ele>11.6</ele>
   </trkpt>
  </trkseg>
 </trk>
</gpx>
